<?xml version="1.0" encoding="UTF-8"?>
<gpx version="1.1" creator="Discover Himalayan Trails" xmlns="http://www.topografix.com/GPX/1/1">
  <metadata>
    <name>Patalsu Peak Trek (DHT route)</name>
    <desc>Route recorded by DHT on 2026-05-18. Conditions change. Not a substitute for a guide, local advice or weather checks.</desc>
    <author><name>Discover Himalayan Trails</name></author>
    <copyright author="Discover Himalayan Trails"><year>2026</year><license>Recorded by DHT. Free to use with credit.</license></copyright>
    <link href="https://discoverhimalayantrails.com/explore/himachal-pradesh/kullu/patalsu-peak"><text>Trek page</text></link>
  </metadata>
  <trk>
    <name>Patalsu Peak</name>
    <trkseg>
      <trkpt lat="32.316034" lon="77.157383"><ele>2435.1</ele></trkpt>
      <trkpt lat="32.315972" lon="77.157315"><ele>2435.5</ele></trkpt>
      <trkpt lat="32.315972" lon="77.157216"><ele>2434.1</ele></trkpt>
      <trkpt lat="32.316021" lon="77.157072"><ele>2433.6</ele></trkpt>
      <trkpt lat="32.316013" lon="77.157019"><ele>2433.6</ele></trkpt>
      <trkpt lat="32.315959" lon="77.156965"><ele>2433.2</ele></trkpt>
      <trkpt lat="32.315992" lon="77.156894"><ele>2431.8</ele></trkpt>
      <trkpt lat="32.316094" lon="77.156817"><ele>2431.4</ele></trkpt>
      <trkpt lat="32.316236" lon="77.156824"><ele>2430.4</ele></trkpt>
      <trkpt lat="32.316382" lon="77.156801"><ele>2428.6</ele></trkpt>
      <trkpt lat="32.316537" lon="77.156816"><ele>2427.6</ele></trkpt>
      <trkpt lat="32.316610" lon="77.156847"><ele>2427.2</ele></trkpt>
      <trkpt lat="32.316768" lon="77.156822"><ele>2426.9</ele></trkpt>
      <trkpt lat="32.316894" lon="77.156879"><ele>2426.6</ele></trkpt>
      <trkpt lat="32.317076" lon="77.156901"><ele>2427.0</ele></trkpt>
      <trkpt lat="32.317176" lon="77.156896"><ele>2427.1</ele></trkpt>
      <trkpt lat="32.317298" lon="77.156857"><ele>2426.8</ele></trkpt>
      <trkpt lat="32.317522" lon="77.156730"><ele>2425.8</ele></trkpt>
      <trkpt lat="32.317690" lon="77.156669"><ele>2425.9</ele></trkpt>
      <trkpt lat="32.317798" lon="77.156579"><ele>2426.6</ele></trkpt>
      <trkpt lat="32.317909" lon="77.156522"><ele>2426.8</ele></trkpt>
      <trkpt lat="32.318010" lon="77.156504"><ele>2427.6</ele></trkpt>
      <trkpt lat="32.318189" lon="77.156407"><ele>2428.5</ele></trkpt>
      <trkpt lat="32.318784" lon="77.156042"><ele>2431.6</ele></trkpt>
      <trkpt lat="32.318846" lon="77.155980"><ele>2432.3</ele></trkpt>
      <trkpt lat="32.319001" lon="77.155901"><ele>2432.9</ele></trkpt>
      <trkpt lat="32.319129" lon="77.155788"><ele>2434.2</ele></trkpt>
      <trkpt lat="32.319351" lon="77.155699"><ele>2435.0</ele></trkpt>
      <trkpt lat="32.319525" lon="77.155661"><ele>2435.7</ele></trkpt>
      <trkpt lat="32.319617" lon="77.155754"><ele>2435.9</ele></trkpt>
      <trkpt lat="32.319714" lon="77.155791"><ele>2436.1</ele></trkpt>
      <trkpt lat="32.319864" lon="77.155746"><ele>2437.0</ele></trkpt>
      <trkpt lat="32.320199" lon="77.155801"><ele>2437.0</ele></trkpt>
      <trkpt lat="32.320274" lon="77.155977"><ele>2436.6</ele></trkpt>
      <trkpt lat="32.320312" lon="77.156006"><ele>2436.5</ele></trkpt>
      <trkpt lat="32.320470" lon="77.156026"><ele>2436.8</ele></trkpt>
      <trkpt lat="32.320572" lon="77.156139"><ele>2438.0</ele></trkpt>
      <trkpt lat="32.320693" lon="77.156208"><ele>2438.6</ele></trkpt>
      <trkpt lat="32.320825" lon="77.156473"><ele>2439.6</ele></trkpt>
      <trkpt lat="32.320829" lon="77.156567"><ele>2440.8</ele></trkpt>
      <trkpt lat="32.320799" lon="77.156599"><ele>2442.2</ele></trkpt>
      <trkpt lat="32.320828" lon="77.156628"><ele>2443.9</ele></trkpt>
      <trkpt lat="32.320832" lon="77.156761"><ele>2445.6</ele></trkpt>
      <trkpt lat="32.320911" lon="77.157003"><ele>2449.9</ele></trkpt>
      <trkpt lat="32.320909" lon="77.157103"><ele>2450.5</ele></trkpt>
      <trkpt lat="32.320926" lon="77.157153"><ele>2451.7</ele></trkpt>
      <trkpt lat="32.321094" lon="77.157486"><ele>2457.2</ele></trkpt>
      <trkpt lat="32.321171" lon="77.157575"><ele>2462.2</ele></trkpt>
      <trkpt lat="32.321156" lon="77.157547"><ele>2463.0</ele></trkpt>
      <trkpt lat="32.321170" lon="77.157531"><ele>2463.7</ele></trkpt>
      <trkpt lat="32.321249" lon="77.157528"><ele>2465.7</ele></trkpt>
      <trkpt lat="32.321359" lon="77.157796"><ele>2467.1</ele></trkpt>
      <trkpt lat="32.321339" lon="77.157716"><ele>2468.8</ele></trkpt>
      <trkpt lat="32.321412" lon="77.157746"><ele>2472.8</ele></trkpt>
      <trkpt lat="32.321508" lon="77.157829"><ele>2475.9</ele></trkpt>
      <trkpt lat="32.321620" lon="77.157849"><ele>2477.2</ele></trkpt>
      <trkpt lat="32.321786" lon="77.157803"><ele>2478.7</ele></trkpt>
      <trkpt lat="32.321901" lon="77.157747"><ele>2480.2</ele></trkpt>
      <trkpt lat="32.321970" lon="77.157743"><ele>2480.9</ele></trkpt>
      <trkpt lat="32.322039" lon="77.157795"><ele>2483.0</ele></trkpt>
      <trkpt lat="32.322134" lon="77.157753"><ele>2486.0</ele></trkpt>
      <trkpt lat="32.322181" lon="77.157837"><ele>2488.4</ele></trkpt>
      <trkpt lat="32.322221" lon="77.157859"><ele>2489.2</ele></trkpt>
      <trkpt lat="32.322275" lon="77.157855"><ele>2491.0</ele></trkpt>
      <trkpt lat="32.322307" lon="77.157779"><ele>2493.1</ele></trkpt>
      <trkpt lat="32.322360" lon="77.157829"><ele>2496.1</ele></trkpt>
      <trkpt lat="32.322400" lon="77.157936"><ele>2500.4</ele></trkpt>
      <trkpt lat="32.322380" lon="77.157827"><ele>2502.8</ele></trkpt>
      <trkpt lat="32.322421" lon="77.157684"><ele>2505.2</ele></trkpt>
      <trkpt lat="32.322529" lon="77.157532"><ele>2511.6</ele></trkpt>
      <trkpt lat="32.322548" lon="77.157435"><ele>2513.3</ele></trkpt>
      <trkpt lat="32.322640" lon="77.157353"><ele>2517.1</ele></trkpt>
      <trkpt lat="32.322670" lon="77.157221"><ele>2519.4</ele></trkpt>
      <trkpt lat="32.322618" lon="77.157090"><ele>2521.7</ele></trkpt>
      <trkpt lat="32.322634" lon="77.157035"><ele>2522.2</ele></trkpt>
      <trkpt lat="32.322771" lon="77.156962"><ele>2525.2</ele></trkpt>
      <trkpt lat="32.322810" lon="77.156854"><ele>2526.4</ele></trkpt>
      <trkpt lat="32.322850" lon="77.156799"><ele>2527.0</ele></trkpt>
      <trkpt lat="32.323025" lon="77.156653"><ele>2531.3</ele></trkpt>
      <trkpt lat="32.323038" lon="77.156523"><ele>2533.0</ele></trkpt>
      <trkpt lat="32.323096" lon="77.156421"><ele>2534.5</ele></trkpt>
      <trkpt lat="32.323214" lon="77.156324"><ele>2537.1</ele></trkpt>
      <trkpt lat="32.323250" lon="77.156206"><ele>2538.4</ele></trkpt>
      <trkpt lat="32.323260" lon="77.156096"><ele>2538.9</ele></trkpt>
      <trkpt lat="32.323296" lon="77.156038"><ele>2539.8</ele></trkpt>
      <trkpt lat="32.323339" lon="77.156090"><ele>2540.7</ele></trkpt>
      <trkpt lat="32.323399" lon="77.156291"><ele>2543.7</ele></trkpt>
      <trkpt lat="32.323499" lon="77.156362"><ele>2547.8</ele></trkpt>
      <trkpt lat="32.323544" lon="77.156438"><ele>2550.3</ele></trkpt>
      <trkpt lat="32.323533" lon="77.156464"><ele>2550.8</ele></trkpt>
      <trkpt lat="32.323570" lon="77.156472"><ele>2551.2</ele></trkpt>
      <trkpt lat="32.323549" lon="77.156493"><ele>2551.8</ele></trkpt>
      <trkpt lat="32.323612" lon="77.156436"><ele>2551.8</ele></trkpt>
      <trkpt lat="32.323708" lon="77.156441"><ele>2551.5</ele></trkpt>
      <trkpt lat="32.323599" lon="77.156455"><ele>2551.2</ele></trkpt>
      <trkpt lat="32.323670" lon="77.156435"><ele>2550.9</ele></trkpt>
      <trkpt lat="32.323697" lon="77.156475"><ele>2550.7</ele></trkpt>
      <trkpt lat="32.323751" lon="77.156498"><ele>2550.6</ele></trkpt>
      <trkpt lat="32.323837" lon="77.156448"><ele>2551.4</ele></trkpt>
      <trkpt lat="32.324070" lon="77.156522"><ele>2554.9</ele></trkpt>
      <trkpt lat="32.324187" lon="77.156535"><ele>2557.2</ele></trkpt>
      <trkpt lat="32.324296" lon="77.156515"><ele>2558.9</ele></trkpt>
      <trkpt lat="32.324407" lon="77.156581"><ele>2560.1</ele></trkpt>
      <trkpt lat="32.324514" lon="77.156415"><ele>2563.5</ele></trkpt>
      <trkpt lat="32.324599" lon="77.156365"><ele>2565.6</ele></trkpt>
      <trkpt lat="32.324643" lon="77.156370"><ele>2566.3</ele></trkpt>
      <trkpt lat="32.324793" lon="77.156266"><ele>2572.4</ele></trkpt>
      <trkpt lat="32.324937" lon="77.156299"><ele>2576.8</ele></trkpt>
      <trkpt lat="32.325034" lon="77.156257"><ele>2578.9</ele></trkpt>
      <trkpt lat="32.325178" lon="77.156269"><ele>2582.2</ele></trkpt>
      <trkpt lat="32.325406" lon="77.156241"><ele>2588.8</ele></trkpt>
      <trkpt lat="32.325602" lon="77.156356"><ele>2591.3</ele></trkpt>
      <trkpt lat="32.325729" lon="77.156477"><ele>2594.0</ele></trkpt>
      <trkpt lat="32.325783" lon="77.156472"><ele>2595.2</ele></trkpt>
      <trkpt lat="32.325842" lon="77.156514"><ele>2595.6</ele></trkpt>
      <trkpt lat="32.325933" lon="77.156653"><ele>2597.7</ele></trkpt>
      <trkpt lat="32.326033" lon="77.156682"><ele>2599.5</ele></trkpt>
      <trkpt lat="32.326057" lon="77.156735"><ele>2601.3</ele></trkpt>
      <trkpt lat="32.326031" lon="77.156806"><ele>2603.1</ele></trkpt>
      <trkpt lat="32.326059" lon="77.156846"><ele>2603.8</ele></trkpt>
      <trkpt lat="32.326065" lon="77.156905"><ele>2605.7</ele></trkpt>
      <trkpt lat="32.326102" lon="77.156945"><ele>2606.6</ele></trkpt>
      <trkpt lat="32.326183" lon="77.156950"><ele>2609.4</ele></trkpt>
      <trkpt lat="32.326268" lon="77.157030"><ele>2611.6</ele></trkpt>
      <trkpt lat="32.326269" lon="77.157056"><ele>2613.3</ele></trkpt>
      <trkpt lat="32.326440" lon="77.157115"><ele>2618.2</ele></trkpt>
      <trkpt lat="32.326458" lon="77.157144"><ele>2618.7</ele></trkpt>
      <trkpt lat="32.326632" lon="77.157233"><ele>2621.9</ele></trkpt>
      <trkpt lat="32.326698" lon="77.157295"><ele>2624.3</ele></trkpt>
      <trkpt lat="32.326707" lon="77.157346"><ele>2625.5</ele></trkpt>
      <trkpt lat="32.326768" lon="77.157445"><ele>2630.6</ele></trkpt>
      <trkpt lat="32.326752" lon="77.157532"><ele>2633.4</ele></trkpt>
      <trkpt lat="32.326797" lon="77.157521"><ele>2634.9</ele></trkpt>
      <trkpt lat="32.326820" lon="77.157547"><ele>2635.6</ele></trkpt>
      <trkpt lat="32.326807" lon="77.157569"><ele>2636.4</ele></trkpt>
      <trkpt lat="32.326830" lon="77.157669"><ele>2639.7</ele></trkpt>
      <trkpt lat="32.326854" lon="77.157686"><ele>2640.0</ele></trkpt>
      <trkpt lat="32.326910" lon="77.157670"><ele>2641.1</ele></trkpt>
      <trkpt lat="32.326980" lon="77.157688"><ele>2643.3</ele></trkpt>
      <trkpt lat="32.326980" lon="77.157718"><ele>2644.2</ele></trkpt>
      <trkpt lat="32.326940" lon="77.157719"><ele>2644.7</ele></trkpt>
      <trkpt lat="32.326979" lon="77.157757"><ele>2645.4</ele></trkpt>
      <trkpt lat="32.327201" lon="77.157807"><ele>2652.8</ele></trkpt>
      <trkpt lat="32.327233" lon="77.157783"><ele>2653.8</ele></trkpt>
      <trkpt lat="32.327241" lon="77.157829"><ele>2654.8</ele></trkpt>
      <trkpt lat="32.327260" lon="77.157840"><ele>2655.6</ele></trkpt>
      <trkpt lat="32.327196" lon="77.157913"><ele>2656.2</ele></trkpt>
      <trkpt lat="32.327277" lon="77.157843"><ele>2657.5</ele></trkpt>
      <trkpt lat="32.327220" lon="77.157979"><ele>2657.8</ele></trkpt>
      <trkpt lat="32.327188" lon="77.157972"><ele>2657.6</ele></trkpt>
      <trkpt lat="32.327154" lon="77.157933"><ele>2657.0</ele></trkpt>
      <trkpt lat="32.327162" lon="77.157852"><ele>2656.8</ele></trkpt>
      <trkpt lat="32.327299" lon="77.157771"><ele>2658.9</ele></trkpt>
      <trkpt lat="32.327488" lon="77.157764"><ele>2662.0</ele></trkpt>
      <trkpt lat="32.327569" lon="77.157727"><ele>2664.1</ele></trkpt>
      <trkpt lat="32.327548" lon="77.157826"><ele>2666.4</ele></trkpt>
      <trkpt lat="32.327607" lon="77.157767"><ele>2668.4</ele></trkpt>
      <trkpt lat="32.327659" lon="77.157787"><ele>2669.5</ele></trkpt>
      <trkpt lat="32.327694" lon="77.157867"><ele>2671.4</ele></trkpt>
      <trkpt lat="32.327749" lon="77.157886"><ele>2672.8</ele></trkpt>
      <trkpt lat="32.327796" lon="77.157933"><ele>2674.2</ele></trkpt>
      <trkpt lat="32.327849" lon="77.158058"><ele>2677.8</ele></trkpt>
      <trkpt lat="32.327964" lon="77.158150"><ele>2681.0</ele></trkpt>
      <trkpt lat="32.327985" lon="77.158234"><ele>2683.7</ele></trkpt>
      <trkpt lat="32.328029" lon="77.158308"><ele>2686.1</ele></trkpt>
      <trkpt lat="32.328090" lon="77.158336"><ele>2687.4</ele></trkpt>
      <trkpt lat="32.328223" lon="77.158331"><ele>2688.9</ele></trkpt>
      <trkpt lat="32.328363" lon="77.158363"><ele>2689.6</ele></trkpt>
      <trkpt lat="32.328422" lon="77.158443"><ele>2692.0</ele></trkpt>
      <trkpt lat="32.328493" lon="77.158480"><ele>2693.4</ele></trkpt>
      <trkpt lat="32.328576" lon="77.158438"><ele>2694.9</ele></trkpt>
      <trkpt lat="32.328694" lon="77.158432"><ele>2696.4</ele></trkpt>
      <trkpt lat="32.328704" lon="77.158517"><ele>2698.2</ele></trkpt>
      <trkpt lat="32.328729" lon="77.158535"><ele>2699.5</ele></trkpt>
      <trkpt lat="32.328789" lon="77.158532"><ele>2700.6</ele></trkpt>
      <trkpt lat="32.328839" lon="77.158566"><ele>2702.5</ele></trkpt>
      <trkpt lat="32.328881" lon="77.158548"><ele>2704.6</ele></trkpt>
      <trkpt lat="32.328998" lon="77.158554"><ele>2709.4</ele></trkpt>
      <trkpt lat="32.329087" lon="77.158584"><ele>2712.5</ele></trkpt>
      <trkpt lat="32.329119" lon="77.158628"><ele>2714.4</ele></trkpt>
      <trkpt lat="32.329233" lon="77.158621"><ele>2717.7</ele></trkpt>
      <trkpt lat="32.329253" lon="77.158641"><ele>2718.2</ele></trkpt>
      <trkpt lat="32.329310" lon="77.158606"><ele>2719.2</ele></trkpt>
      <trkpt lat="32.329351" lon="77.158607"><ele>2720.7</ele></trkpt>
      <trkpt lat="32.329400" lon="77.158563"><ele>2722.1</ele></trkpt>
      <trkpt lat="32.329459" lon="77.158468"><ele>2726.0</ele></trkpt>
      <trkpt lat="32.329451" lon="77.158422"><ele>2726.8</ele></trkpt>
      <trkpt lat="32.329468" lon="77.158378"><ele>2727.5</ele></trkpt>
      <trkpt lat="32.329655" lon="77.158492"><ele>2732.7</ele></trkpt>
      <trkpt lat="32.329622" lon="77.158739"><ele>2738.2</ele></trkpt>
      <trkpt lat="32.329659" lon="77.158727"><ele>2739.4</ele></trkpt>
      <trkpt lat="32.329639" lon="77.158767"><ele>2741.2</ele></trkpt>
      <trkpt lat="32.329637" lon="77.158883"><ele>2743.0</ele></trkpt>
      <trkpt lat="32.329687" lon="77.158906"><ele>2745.1</ele></trkpt>
      <trkpt lat="32.329781" lon="77.158893"><ele>2748.5</ele></trkpt>
      <trkpt lat="32.329882" lon="77.158980"><ele>2752.2</ele></trkpt>
      <trkpt lat="32.329896" lon="77.159037"><ele>2753.7</ele></trkpt>
      <trkpt lat="32.329957" lon="77.159091"><ele>2755.5</ele></trkpt>
      <trkpt lat="32.330042" lon="77.159252"><ele>2758.4</ele></trkpt>
      <trkpt lat="32.330205" lon="77.159308"><ele>2763.6</ele></trkpt>
      <trkpt lat="32.330256" lon="77.159286"><ele>2765.5</ele></trkpt>
      <trkpt lat="32.330337" lon="77.159338"><ele>2769.2</ele></trkpt>
      <trkpt lat="32.330351" lon="77.159326"><ele>2771.4</ele></trkpt>
      <trkpt lat="32.330382" lon="77.159373"><ele>2773.6</ele></trkpt>
      <trkpt lat="32.330418" lon="77.159374"><ele>2774.0</ele></trkpt>
      <trkpt lat="32.330540" lon="77.159555"><ele>2780.5</ele></trkpt>
      <trkpt lat="32.330527" lon="77.159638"><ele>2782.9</ele></trkpt>
      <trkpt lat="32.330746" lon="77.159744"><ele>2790.2</ele></trkpt>
      <trkpt lat="32.330905" lon="77.159778"><ele>2792.4</ele></trkpt>
      <trkpt lat="32.331011" lon="77.159899"><ele>2795.0</ele></trkpt>
      <trkpt lat="32.331071" lon="77.159912"><ele>2795.7</ele></trkpt>
      <trkpt lat="32.331264" lon="77.159871"><ele>2798.3</ele></trkpt>
      <trkpt lat="32.331386" lon="77.159892"><ele>2799.8</ele></trkpt>
      <trkpt lat="32.331545" lon="77.159880"><ele>2801.9</ele></trkpt>
      <trkpt lat="32.331599" lon="77.159864"><ele>2803.1</ele></trkpt>
      <trkpt lat="32.331648" lon="77.159807"><ele>2805.0</ele></trkpt>
      <trkpt lat="32.331718" lon="77.159773"><ele>2805.8</ele></trkpt>
      <trkpt lat="32.331735" lon="77.159825"><ele>2806.6</ele></trkpt>
      <trkpt lat="32.331863" lon="77.159776"><ele>2807.9</ele></trkpt>
      <trkpt lat="32.331953" lon="77.159787"><ele>2809.1</ele></trkpt>
      <trkpt lat="32.332021" lon="77.159714"><ele>2810.6</ele></trkpt>
      <trkpt lat="32.332076" lon="77.159700"><ele>2811.4</ele></trkpt>
      <trkpt lat="32.332136" lon="77.159708"><ele>2813.9</ele></trkpt>
      <trkpt lat="32.332107" lon="77.159716"><ele>2814.6</ele></trkpt>
      <trkpt lat="32.332090" lon="77.159759"><ele>2815.0</ele></trkpt>
      <trkpt lat="32.332108" lon="77.159768"><ele>2815.4</ele></trkpt>
      <trkpt lat="32.332247" lon="77.159726"><ele>2818.2</ele></trkpt>
      <trkpt lat="32.332361" lon="77.159810"><ele>2823.3</ele></trkpt>
      <trkpt lat="32.332313" lon="77.159890"><ele>2824.9</ele></trkpt>
      <trkpt lat="32.332423" lon="77.159992"><ele>2828.8</ele></trkpt>
      <trkpt lat="32.332457" lon="77.159951"><ele>2830.0</ele></trkpt>
      <trkpt lat="32.332599" lon="77.159971"><ele>2833.0</ele></trkpt>
      <trkpt lat="32.332645" lon="77.159997"><ele>2834.9</ele></trkpt>
      <trkpt lat="32.332734" lon="77.160239"><ele>2839.0</ele></trkpt>
      <trkpt lat="32.332787" lon="77.160334"><ele>2841.6</ele></trkpt>
      <trkpt lat="32.332964" lon="77.160298"><ele>2845.7</ele></trkpt>
      <trkpt lat="32.333119" lon="77.160348"><ele>2849.4</ele></trkpt>
      <trkpt lat="32.333164" lon="77.160342"><ele>2850.7</ele></trkpt>
      <trkpt lat="32.333186" lon="77.160402"><ele>2852.9</ele></trkpt>
      <trkpt lat="32.333405" lon="77.160385"><ele>2860.1</ele></trkpt>
      <trkpt lat="32.333452" lon="77.160437"><ele>2861.8</ele></trkpt>
      <trkpt lat="32.333523" lon="77.160432"><ele>2863.6</ele></trkpt>
      <trkpt lat="32.333539" lon="77.160511"><ele>2865.9</ele></trkpt>
      <trkpt lat="32.333593" lon="77.160534"><ele>2866.8</ele></trkpt>
      <trkpt lat="32.333659" lon="77.160617"><ele>2869.3</ele></trkpt>
      <trkpt lat="32.333746" lon="77.160641"><ele>2871.0</ele></trkpt>
      <trkpt lat="32.333857" lon="77.160597"><ele>2872.9</ele></trkpt>
      <trkpt lat="32.333909" lon="77.160602"><ele>2875.2</ele></trkpt>
      <trkpt lat="32.334001" lon="77.160538"><ele>2879.4</ele></trkpt>
      <trkpt lat="32.334053" lon="77.160530"><ele>2880.4</ele></trkpt>
      <trkpt lat="32.334106" lon="77.160618"><ele>2882.4</ele></trkpt>
      <trkpt lat="32.334140" lon="77.160725"><ele>2883.8</ele></trkpt>
      <trkpt lat="32.334273" lon="77.160840"><ele>2889.2</ele></trkpt>
      <trkpt lat="32.334295" lon="77.160881"><ele>2890.3</ele></trkpt>
      <trkpt lat="32.334448" lon="77.160954"><ele>2895.8</ele></trkpt>
      <trkpt lat="32.334579" lon="77.160972"><ele>2899.6</ele></trkpt>
      <trkpt lat="32.334677" lon="77.161069"><ele>2903.5</ele></trkpt>
      <trkpt lat="32.334842" lon="77.161139"><ele>2906.7</ele></trkpt>
      <trkpt lat="32.334926" lon="77.161234"><ele>2908.8</ele></trkpt>
      <trkpt lat="32.334986" lon="77.161243"><ele>2910.5</ele></trkpt>
      <trkpt lat="32.335074" lon="77.161222"><ele>2913.8</ele></trkpt>
      <trkpt lat="32.335104" lon="77.161237"><ele>2914.4</ele></trkpt>
      <trkpt lat="32.335038" lon="77.161403"><ele>2918.0</ele></trkpt>
      <trkpt lat="32.335051" lon="77.161436"><ele>2918.6</ele></trkpt>
      <trkpt lat="32.335130" lon="77.161435"><ele>2920.8</ele></trkpt>
      <trkpt lat="32.335298" lon="77.161533"><ele>2925.4</ele></trkpt>
      <trkpt lat="32.335305" lon="77.161654"><ele>2927.6</ele></trkpt>
      <trkpt lat="32.335244" lon="77.161708"><ele>2929.2</ele></trkpt>
      <trkpt lat="32.335242" lon="77.161828"><ele>2931.6</ele></trkpt>
      <trkpt lat="32.335285" lon="77.161807"><ele>2933.9</ele></trkpt>
      <trkpt lat="32.335305" lon="77.161748"><ele>2934.6</ele></trkpt>
      <trkpt lat="32.335318" lon="77.161759"><ele>2935.2</ele></trkpt>
      <trkpt lat="32.335360" lon="77.161949"><ele>2938.0</ele></trkpt>
      <trkpt lat="32.335410" lon="77.161987"><ele>2939.1</ele></trkpt>
      <trkpt lat="32.335435" lon="77.161960"><ele>2940.4</ele></trkpt>
      <trkpt lat="32.335466" lon="77.162005"><ele>2941.3</ele></trkpt>
      <trkpt lat="32.335480" lon="77.162143"><ele>2943.4</ele></trkpt>
      <trkpt lat="32.335526" lon="77.162197"><ele>2944.1</ele></trkpt>
      <trkpt lat="32.335544" lon="77.162288"><ele>2946.0</ele></trkpt>
      <trkpt lat="32.335408" lon="77.162301"><ele>2950.6</ele></trkpt>
      <trkpt lat="32.335311" lon="77.162287"><ele>2952.1</ele></trkpt>
      <trkpt lat="32.335264" lon="77.162369"><ele>2954.0</ele></trkpt>
      <trkpt lat="32.335201" lon="77.162413"><ele>2956.8</ele></trkpt>
      <trkpt lat="32.335090" lon="77.162425"><ele>2959.1</ele></trkpt>
      <trkpt lat="32.335098" lon="77.162455"><ele>2960.4</ele></trkpt>
      <trkpt lat="32.334945" lon="77.162571"><ele>2963.3</ele></trkpt>
      <trkpt lat="32.334781" lon="77.162817"><ele>2967.4</ele></trkpt>
      <trkpt lat="32.334798" lon="77.162869"><ele>2968.3</ele></trkpt>
      <trkpt lat="32.334768" lon="77.162899"><ele>2969.4</ele></trkpt>
      <trkpt lat="32.334757" lon="77.163118"><ele>2973.6</ele></trkpt>
      <trkpt lat="32.334805" lon="77.163246"><ele>2974.7</ele></trkpt>
      <trkpt lat="32.334810" lon="77.163305"><ele>2976.6</ele></trkpt>
      <trkpt lat="32.334795" lon="77.163322"><ele>2977.1</ele></trkpt>
      <trkpt lat="32.334830" lon="77.163351"><ele>2978.0</ele></trkpt>
      <trkpt lat="32.334816" lon="77.163541"><ele>2981.5</ele></trkpt>
      <trkpt lat="32.334696" lon="77.163776"><ele>2986.4</ele></trkpt>
      <trkpt lat="32.334690" lon="77.163875"><ele>2988.0</ele></trkpt>
      <trkpt lat="32.334630" lon="77.164116"><ele>2989.0</ele></trkpt>
      <trkpt lat="32.334629" lon="77.164254"><ele>2990.8</ele></trkpt>
      <trkpt lat="32.334609" lon="77.164296"><ele>2992.1</ele></trkpt>
      <trkpt lat="32.334624" lon="77.164340"><ele>2993.0</ele></trkpt>
      <trkpt lat="32.334568" lon="77.164660"><ele>2997.0</ele></trkpt>
      <trkpt lat="32.334531" lon="77.164745"><ele>2998.2</ele></trkpt>
      <trkpt lat="32.334493" lon="77.164779"><ele>2999.6</ele></trkpt>
      <trkpt lat="32.334447" lon="77.164907"><ele>3001.8</ele></trkpt>
      <trkpt lat="32.334339" lon="77.164961"><ele>3003.0</ele></trkpt>
      <trkpt lat="32.334289" lon="77.164956"><ele>3004.5</ele></trkpt>
      <trkpt lat="32.334254" lon="77.164988"><ele>3006.1</ele></trkpt>
      <trkpt lat="32.334064" lon="77.164854"><ele>3009.7</ele></trkpt>
      <trkpt lat="32.334001" lon="77.164850"><ele>3012.0</ele></trkpt>
      <trkpt lat="32.334001" lon="77.164870"><ele>3012.6</ele></trkpt>
      <trkpt lat="32.334026" lon="77.164958"><ele>3014.0</ele></trkpt>
      <trkpt lat="32.334070" lon="77.165029"><ele>3015.4</ele></trkpt>
      <trkpt lat="32.334187" lon="77.165152"><ele>3018.5</ele></trkpt>
      <trkpt lat="32.334156" lon="77.165291"><ele>3022.4</ele></trkpt>
      <trkpt lat="32.334230" lon="77.165318"><ele>3024.2</ele></trkpt>
      <trkpt lat="32.334243" lon="77.165342"><ele>3025.1</ele></trkpt>
      <trkpt lat="32.334251" lon="77.165480"><ele>3030.4</ele></trkpt>
      <trkpt lat="32.334282" lon="77.165564"><ele>3032.7</ele></trkpt>
      <trkpt lat="32.334323" lon="77.165590"><ele>3033.6</ele></trkpt>
      <trkpt lat="32.334346" lon="77.165646"><ele>3035.0</ele></trkpt>
      <trkpt lat="32.334412" lon="77.165652"><ele>3036.9</ele></trkpt>
      <trkpt lat="32.334520" lon="77.165723"><ele>3040.6</ele></trkpt>
      <trkpt lat="32.334525" lon="77.165802"><ele>3042.6</ele></trkpt>
      <trkpt lat="32.334638" lon="77.165955"><ele>3048.2</ele></trkpt>
      <trkpt lat="32.334713" lon="77.166123"><ele>3052.7</ele></trkpt>
      <trkpt lat="32.334810" lon="77.166177"><ele>3055.2</ele></trkpt>
      <trkpt lat="32.334895" lon="77.166191"><ele>3057.4</ele></trkpt>
      <trkpt lat="32.334929" lon="77.166262"><ele>3059.0</ele></trkpt>
      <trkpt lat="32.334921" lon="77.166346"><ele>3061.9</ele></trkpt>
      <trkpt lat="32.334947" lon="77.166347"><ele>3062.9</ele></trkpt>
      <trkpt lat="32.334966" lon="77.166393"><ele>3064.6</ele></trkpt>
      <trkpt lat="32.335040" lon="77.166364"><ele>3066.4</ele></trkpt>
      <trkpt lat="32.335130" lon="77.166422"><ele>3069.0</ele></trkpt>
      <trkpt lat="32.335243" lon="77.166307"><ele>3072.2</ele></trkpt>
      <trkpt lat="32.335349" lon="77.166362"><ele>3075.7</ele></trkpt>
      <trkpt lat="32.335358" lon="77.166465"><ele>3079.4</ele></trkpt>
      <trkpt lat="32.335382" lon="77.166482"><ele>3080.1</ele></trkpt>
      <trkpt lat="32.335388" lon="77.166444"><ele>3080.6</ele></trkpt>
      <trkpt lat="32.335468" lon="77.166540"><ele>3083.3</ele></trkpt>
      <trkpt lat="32.335497" lon="77.166613"><ele>3085.4</ele></trkpt>
      <trkpt lat="32.335524" lon="77.166811"><ele>3087.7</ele></trkpt>
      <trkpt lat="32.335549" lon="77.166876"><ele>3089.4</ele></trkpt>
      <trkpt lat="32.335635" lon="77.166890"><ele>3091.3</ele></trkpt>
      <trkpt lat="32.335647" lon="77.166833"><ele>3092.4</ele></trkpt>
      <trkpt lat="32.335660" lon="77.166840"><ele>3093.1</ele></trkpt>
      <trkpt lat="32.335711" lon="77.166743"><ele>3096.4</ele></trkpt>
      <trkpt lat="32.335918" lon="77.166704"><ele>3102.4</ele></trkpt>
      <trkpt lat="32.335967" lon="77.166663"><ele>3103.6</ele></trkpt>
      <trkpt lat="32.336039" lon="77.166662"><ele>3105.8</ele></trkpt>
      <trkpt lat="32.336061" lon="77.166617"><ele>3107.5</ele></trkpt>
      <trkpt lat="32.336078" lon="77.166683"><ele>3109.3</ele></trkpt>
      <trkpt lat="32.336108" lon="77.166689"><ele>3111.0</ele></trkpt>
      <trkpt lat="32.336226" lon="77.166816"><ele>3114.0</ele></trkpt>
      <trkpt lat="32.336402" lon="77.166707"><ele>3117.6</ele></trkpt>
      <trkpt lat="32.336419" lon="77.166742"><ele>3119.2</ele></trkpt>
      <trkpt lat="32.336468" lon="77.166728"><ele>3121.0</ele></trkpt>
      <trkpt lat="32.336508" lon="77.166676"><ele>3123.4</ele></trkpt>
      <trkpt lat="32.336569" lon="77.166670"><ele>3125.6</ele></trkpt>
      <trkpt lat="32.336604" lon="77.166700"><ele>3126.2</ele></trkpt>
      <trkpt lat="32.336619" lon="77.166650"><ele>3127.3</ele></trkpt>
      <trkpt lat="32.336697" lon="77.166589"><ele>3128.3</ele></trkpt>
      <trkpt lat="32.336704" lon="77.166510"><ele>3129.6</ele></trkpt>
      <trkpt lat="32.336744" lon="77.166582"><ele>3132.0</ele></trkpt>
      <trkpt lat="32.336790" lon="77.166584"><ele>3133.5</ele></trkpt>
      <trkpt lat="32.336856" lon="77.166622"><ele>3135.5</ele></trkpt>
      <trkpt lat="32.336871" lon="77.166662"><ele>3136.0</ele></trkpt>
      <trkpt lat="32.336935" lon="77.166699"><ele>3139.2</ele></trkpt>
      <trkpt lat="32.336952" lon="77.166763"><ele>3140.8</ele></trkpt>
      <trkpt lat="32.336926" lon="77.166854"><ele>3142.7</ele></trkpt>
      <trkpt lat="32.336939" lon="77.166939"><ele>3144.8</ele></trkpt>
      <trkpt lat="32.336912" lon="77.166981"><ele>3146.5</ele></trkpt>
      <trkpt lat="32.336919" lon="77.167023"><ele>3148.3</ele></trkpt>
      <trkpt lat="32.336899" lon="77.167073"><ele>3150.3</ele></trkpt>
      <trkpt lat="32.336912" lon="77.167090"><ele>3151.6</ele></trkpt>
      <trkpt lat="32.336899" lon="77.167097"><ele>3152.3</ele></trkpt>
      <trkpt lat="32.336943" lon="77.167128"><ele>3154.4</ele></trkpt>
      <trkpt lat="32.336978" lon="77.167226"><ele>3156.4</ele></trkpt>
      <trkpt lat="32.336888" lon="77.167428"><ele>3161.8</ele></trkpt>
      <trkpt lat="32.336954" lon="77.167531"><ele>3165.6</ele></trkpt>
      <trkpt lat="32.336911" lon="77.167635"><ele>3167.4</ele></trkpt>
      <trkpt lat="32.336953" lon="77.167762"><ele>3170.8</ele></trkpt>
      <trkpt lat="32.337036" lon="77.167756"><ele>3173.9</ele></trkpt>
      <trkpt lat="32.337081" lon="77.167812"><ele>3176.0</ele></trkpt>
      <trkpt lat="32.337091" lon="77.167858"><ele>3176.4</ele></trkpt>
      <trkpt lat="32.337068" lon="77.167894"><ele>3177.9</ele></trkpt>
      <trkpt lat="32.337108" lon="77.168067"><ele>3182.2</ele></trkpt>
      <trkpt lat="32.337106" lon="77.168101"><ele>3183.0</ele></trkpt>
      <trkpt lat="32.337050" lon="77.168161"><ele>3184.6</ele></trkpt>
      <trkpt lat="32.336965" lon="77.168209"><ele>3187.1</ele></trkpt>
      <trkpt lat="32.336961" lon="77.168274"><ele>3187.3</ele></trkpt>
      <trkpt lat="32.336932" lon="77.168236"><ele>3187.1</ele></trkpt>
      <trkpt lat="32.336937" lon="77.168208"><ele>3187.1</ele></trkpt>
      <trkpt lat="32.336943" lon="77.168344"><ele>3186.4</ele></trkpt>
      <trkpt lat="32.336921" lon="77.168497"><ele>3187.4</ele></trkpt>
      <trkpt lat="32.336940" lon="77.168542"><ele>3188.1</ele></trkpt>
      <trkpt lat="32.336941" lon="77.168722"><ele>3191.5</ele></trkpt>
      <trkpt lat="32.337001" lon="77.168794"><ele>3192.9</ele></trkpt>
      <trkpt lat="32.336956" lon="77.168914"><ele>3194.6</ele></trkpt>
      <trkpt lat="32.336954" lon="77.168967"><ele>3195.4</ele></trkpt>
      <trkpt lat="32.336811" lon="77.169281"><ele>3201.5</ele></trkpt>
      <trkpt lat="32.336856" lon="77.169396"><ele>3203.8</ele></trkpt>
      <trkpt lat="32.336962" lon="77.169440"><ele>3206.1</ele></trkpt>
      <trkpt lat="32.337039" lon="77.169507"><ele>3209.4</ele></trkpt>
      <trkpt lat="32.337074" lon="77.169581"><ele>3210.9</ele></trkpt>
      <trkpt lat="32.337172" lon="77.169655"><ele>3215.9</ele></trkpt>
      <trkpt lat="32.337332" lon="77.169730"><ele>3220.8</ele></trkpt>
      <trkpt lat="32.337366" lon="77.169782"><ele>3222.5</ele></trkpt>
      <trkpt lat="32.337491" lon="77.169781"><ele>3225.6</ele></trkpt>
      <trkpt lat="32.337532" lon="77.169812"><ele>3226.7</ele></trkpt>
      <trkpt lat="32.337618" lon="77.169796"><ele>3230.3</ele></trkpt>
      <trkpt lat="32.337669" lon="77.169826"><ele>3232.4</ele></trkpt>
      <trkpt lat="32.337823" lon="77.169756"><ele>3236.7</ele></trkpt>
      <trkpt lat="32.337822" lon="77.169806"><ele>3238.2</ele></trkpt>
      <trkpt lat="32.337856" lon="77.169884"><ele>3239.8</ele></trkpt>
      <trkpt lat="32.337913" lon="77.169957"><ele>3240.5</ele></trkpt>
      <trkpt lat="32.337979" lon="77.170002"><ele>3242.8</ele></trkpt>
      <trkpt lat="32.338007" lon="77.170108"><ele>3245.6</ele></trkpt>
      <trkpt lat="32.338048" lon="77.170163"><ele>3247.1</ele></trkpt>
      <trkpt lat="32.338229" lon="77.170148"><ele>3252.4</ele></trkpt>
      <trkpt lat="32.338264" lon="77.170173"><ele>3253.2</ele></trkpt>
      <trkpt lat="32.338261" lon="77.170222"><ele>3254.8</ele></trkpt>
      <trkpt lat="32.338281" lon="77.170236"><ele>3255.8</ele></trkpt>
      <trkpt lat="32.338462" lon="77.170260"><ele>3261.6</ele></trkpt>
      <trkpt lat="32.338532" lon="77.170357"><ele>3265.0</ele></trkpt>
      <trkpt lat="32.338589" lon="77.170304"><ele>3266.9</ele></trkpt>
      <trkpt lat="32.338605" lon="77.170335"><ele>3267.3</ele></trkpt>
      <trkpt lat="32.338699" lon="77.170322"><ele>3267.9</ele></trkpt>
      <trkpt lat="32.338885" lon="77.170404"><ele>3271.2</ele></trkpt>
      <trkpt lat="32.338960" lon="77.170415"><ele>3272.9</ele></trkpt>
      <trkpt lat="32.339008" lon="77.170492"><ele>3275.1</ele></trkpt>
      <trkpt lat="32.339115" lon="77.170533"><ele>3277.3</ele></trkpt>
      <trkpt lat="32.339268" lon="77.170642"><ele>3282.6</ele></trkpt>
      <trkpt lat="32.339340" lon="77.170668"><ele>3283.9</ele></trkpt>
      <trkpt lat="32.339376" lon="77.170696"><ele>3285.4</ele></trkpt>
      <trkpt lat="32.339377" lon="77.170730"><ele>3286.0</ele></trkpt>
      <trkpt lat="32.339406" lon="77.170770"><ele>3286.7</ele></trkpt>
      <trkpt lat="32.339520" lon="77.170830"><ele>3290.2</ele></trkpt>
      <trkpt lat="32.339639" lon="77.170933"><ele>3293.4</ele></trkpt>
      <trkpt lat="32.339743" lon="77.170983"><ele>3296.4</ele></trkpt>
      <trkpt lat="32.339777" lon="77.171083"><ele>3298.1</ele></trkpt>
      <trkpt lat="32.339809" lon="77.171111"><ele>3299.0</ele></trkpt>
      <trkpt lat="32.339899" lon="77.171121"><ele>3300.4</ele></trkpt>
      <trkpt lat="32.339891" lon="77.171149"><ele>3300.4</ele></trkpt>
      <trkpt lat="32.339910" lon="77.171161"><ele>3300.2</ele></trkpt>
      <trkpt lat="32.339888" lon="77.171161"><ele>3300.3</ele></trkpt>
      <trkpt lat="32.339835" lon="77.171216"><ele>3300.6</ele></trkpt>
      <trkpt lat="32.339887" lon="77.171175"><ele>3300.7</ele></trkpt>
      <trkpt lat="32.339932" lon="77.171175"><ele>3301.1</ele></trkpt>
      <trkpt lat="32.340012" lon="77.171309"><ele>3304.7</ele></trkpt>
      <trkpt lat="32.340073" lon="77.171331"><ele>3305.8</ele></trkpt>
      <trkpt lat="32.340098" lon="77.171413"><ele>3307.9</ele></trkpt>
      <trkpt lat="32.340170" lon="77.171512"><ele>3310.2</ele></trkpt>
      <trkpt lat="32.340264" lon="77.171581"><ele>3312.5</ele></trkpt>
      <trkpt lat="32.340302" lon="77.171648"><ele>3313.4</ele></trkpt>
      <trkpt lat="32.340412" lon="77.171700"><ele>3316.7</ele></trkpt>
      <trkpt lat="32.340490" lon="77.171842"><ele>3319.6</ele></trkpt>
      <trkpt lat="32.340539" lon="77.171845"><ele>3320.0</ele></trkpt>
      <trkpt lat="32.340563" lon="77.171903"><ele>3322.1</ele></trkpt>
      <trkpt lat="32.340612" lon="77.171942"><ele>3323.5</ele></trkpt>
      <trkpt lat="32.340733" lon="77.171999"><ele>3326.0</ele></trkpt>
      <trkpt lat="32.340829" lon="77.172072"><ele>3328.1</ele></trkpt>
      <trkpt lat="32.340840" lon="77.172154"><ele>3330.1</ele></trkpt>
      <trkpt lat="32.340894" lon="77.172229"><ele>3332.7</ele></trkpt>
      <trkpt lat="32.340942" lon="77.172236"><ele>3333.5</ele></trkpt>
      <trkpt lat="32.340981" lon="77.172282"><ele>3335.4</ele></trkpt>
      <trkpt lat="32.341090" lon="77.172276"><ele>3338.4</ele></trkpt>
      <trkpt lat="32.341206" lon="77.172407"><ele>3342.1</ele></trkpt>
      <trkpt lat="32.341336" lon="77.172476"><ele>3343.8</ele></trkpt>
      <trkpt lat="32.341419" lon="77.172482"><ele>3344.6</ele></trkpt>
      <trkpt lat="32.341507" lon="77.172566"><ele>3345.8</ele></trkpt>
      <trkpt lat="32.341663" lon="77.172635"><ele>3347.0</ele></trkpt>
      <trkpt lat="32.341700" lon="77.172681"><ele>3348.0</ele></trkpt>
      <trkpt lat="32.341814" lon="77.172734"><ele>3348.9</ele></trkpt>
      <trkpt lat="32.342000" lon="77.172944"><ele>3348.8</ele></trkpt>
      <trkpt lat="32.342115" lon="77.173016"><ele>3348.8</ele></trkpt>
      <trkpt lat="32.342249" lon="77.173047"><ele>3348.9</ele></trkpt>
      <trkpt lat="32.342350" lon="77.173019"><ele>3349.5</ele></trkpt>
      <trkpt lat="32.342452" lon="77.173024"><ele>3350.3</ele></trkpt>
      <trkpt lat="32.342565" lon="77.172962"><ele>3352.3</ele></trkpt>
      <trkpt lat="32.342544" lon="77.173057"><ele>3353.1</ele></trkpt>
      <trkpt lat="32.342577" lon="77.173111"><ele>3353.5</ele></trkpt>
      <trkpt lat="32.342620" lon="77.173336"><ele>3357.0</ele></trkpt>
      <trkpt lat="32.342680" lon="77.173395"><ele>3358.4</ele></trkpt>
      <trkpt lat="32.342707" lon="77.173460"><ele>3359.4</ele></trkpt>
      <trkpt lat="32.342946" lon="77.173627"><ele>3366.4</ele></trkpt>
      <trkpt lat="32.342989" lon="77.173713"><ele>3368.4</ele></trkpt>
      <trkpt lat="32.343108" lon="77.173833"><ele>3373.4</ele></trkpt>
      <trkpt lat="32.343157" lon="77.173854"><ele>3375.0</ele></trkpt>
      <trkpt lat="32.343215" lon="77.173909"><ele>3376.9</ele></trkpt>
      <trkpt lat="32.343245" lon="77.173972"><ele>3378.8</ele></trkpt>
      <trkpt lat="32.343345" lon="77.174050"><ele>3381.6</ele></trkpt>
      <trkpt lat="32.343364" lon="77.174287"><ele>3387.4</ele></trkpt>
      <trkpt lat="32.343354" lon="77.174359"><ele>3389.3</ele></trkpt>
      <trkpt lat="32.343405" lon="77.174352"><ele>3390.9</ele></trkpt>
      <trkpt lat="32.343416" lon="77.174384"><ele>3391.7</ele></trkpt>
      <trkpt lat="32.343386" lon="77.174425"><ele>3392.3</ele></trkpt>
      <trkpt lat="32.343367" lon="77.174522"><ele>3395.6</ele></trkpt>
      <trkpt lat="32.343465" lon="77.174575"><ele>3398.5</ele></trkpt>
      <trkpt lat="32.343515" lon="77.174666"><ele>3401.2</ele></trkpt>
      <trkpt lat="32.343566" lon="77.174694"><ele>3403.4</ele></trkpt>
      <trkpt lat="32.343603" lon="77.174772"><ele>3405.0</ele></trkpt>
      <trkpt lat="32.343602" lon="77.174812"><ele>3406.4</ele></trkpt>
      <trkpt lat="32.343658" lon="77.174842"><ele>3407.5</ele></trkpt>
      <trkpt lat="32.343658" lon="77.174817"><ele>3408.1</ele></trkpt>
      <trkpt lat="32.343734" lon="77.175022"><ele>3413.0</ele></trkpt>
      <trkpt lat="32.343796" lon="77.175039"><ele>3414.2</ele></trkpt>
      <trkpt lat="32.343817" lon="77.175105"><ele>3416.3</ele></trkpt>
      <trkpt lat="32.344004" lon="77.175282"><ele>3424.0</ele></trkpt>
      <trkpt lat="32.344157" lon="77.175354"><ele>3426.1</ele></trkpt>
      <trkpt lat="32.344162" lon="77.175441"><ele>3428.2</ele></trkpt>
      <trkpt lat="32.344196" lon="77.175443"><ele>3429.2</ele></trkpt>
      <trkpt lat="32.344181" lon="77.175463"><ele>3430.3</ele></trkpt>
      <trkpt lat="32.344245" lon="77.175505"><ele>3431.9</ele></trkpt>
      <trkpt lat="32.344291" lon="77.175492"><ele>3433.4</ele></trkpt>
      <trkpt lat="32.344316" lon="77.175509"><ele>3434.0</ele></trkpt>
      <trkpt lat="32.344342" lon="77.175562"><ele>3435.6</ele></trkpt>
      <trkpt lat="32.344344" lon="77.175625"><ele>3437.2</ele></trkpt>
      <trkpt lat="32.344449" lon="77.175686"><ele>3441.6</ele></trkpt>
      <trkpt lat="32.344491" lon="77.175689"><ele>3442.9</ele></trkpt>
      <trkpt lat="32.344502" lon="77.175727"><ele>3444.3</ele></trkpt>
      <trkpt lat="32.344485" lon="77.175742"><ele>3445.0</ele></trkpt>
      <trkpt lat="32.344489" lon="77.175768"><ele>3446.3</ele></trkpt>
      <trkpt lat="32.344524" lon="77.175810"><ele>3447.7</ele></trkpt>
      <trkpt lat="32.344624" lon="77.175804"><ele>3448.4</ele></trkpt>
      <trkpt lat="32.344705" lon="77.175827"><ele>3450.4</ele></trkpt>
      <trkpt lat="32.344793" lon="77.175883"><ele>3453.0</ele></trkpt>
      <trkpt lat="32.344849" lon="77.175960"><ele>3455.4</ele></trkpt>
      <trkpt lat="32.344919" lon="77.175988"><ele>3457.7</ele></trkpt>
      <trkpt lat="32.344943" lon="77.176019"><ele>3458.7</ele></trkpt>
      <trkpt lat="32.344935" lon="77.176133"><ele>3461.1</ele></trkpt>
      <trkpt lat="32.345001" lon="77.176157"><ele>3464.1</ele></trkpt>
      <trkpt lat="32.345041" lon="77.176205"><ele>3465.7</ele></trkpt>
      <trkpt lat="32.345013" lon="77.176201"><ele>3465.8</ele></trkpt>
      <trkpt lat="32.345073" lon="77.176280"><ele>3466.0</ele></trkpt>
      <trkpt lat="32.345088" lon="77.176355"><ele>3466.0</ele></trkpt>
      <trkpt lat="32.345118" lon="77.176375"><ele>3466.0</ele></trkpt>
      <trkpt lat="32.345200" lon="77.176330"><ele>3472.7</ele></trkpt>
      <trkpt lat="32.345231" lon="77.176356"><ele>3475.2</ele></trkpt>
      <trkpt lat="32.345323" lon="77.176366"><ele>3479.0</ele></trkpt>
      <trkpt lat="32.345318" lon="77.176335"><ele>3479.8</ele></trkpt>
      <trkpt lat="32.345332" lon="77.176328"><ele>3480.4</ele></trkpt>
      <trkpt lat="32.345414" lon="77.176333"><ele>3485.4</ele></trkpt>
      <trkpt lat="32.345420" lon="77.176310"><ele>3487.1</ele></trkpt>
      <trkpt lat="32.345481" lon="77.176309"><ele>3488.7</ele></trkpt>
      <trkpt lat="32.345537" lon="77.176383"><ele>3494.8</ele></trkpt>
      <trkpt lat="32.345644" lon="77.176423"><ele>3499.3</ele></trkpt>
      <trkpt lat="32.345761" lon="77.176400"><ele>3505.1</ele></trkpt>
      <trkpt lat="32.345999" lon="77.176544"><ele>3516.1</ele></trkpt>
      <trkpt lat="32.345978" lon="77.176535"><ele>3516.6</ele></trkpt>
      <trkpt lat="32.346006" lon="77.176570"><ele>3517.4</ele></trkpt>
      <trkpt lat="32.346055" lon="77.176577"><ele>3518.7</ele></trkpt>
      <trkpt lat="32.346064" lon="77.176641"><ele>3520.1</ele></trkpt>
      <trkpt lat="32.346091" lon="77.176676"><ele>3521.0</ele></trkpt>
      <trkpt lat="32.346195" lon="77.176653"><ele>3523.4</ele></trkpt>
      <trkpt lat="32.346212" lon="77.176685"><ele>3524.0</ele></trkpt>
      <trkpt lat="32.346265" lon="77.176670"><ele>3524.4</ele></trkpt>
      <trkpt lat="32.346287" lon="77.176687"><ele>3525.8</ele></trkpt>
      <trkpt lat="32.346313" lon="77.176642"><ele>3526.7</ele></trkpt>
      <trkpt lat="32.346416" lon="77.176657"><ele>3529.6</ele></trkpt>
      <trkpt lat="32.346430" lon="77.176723"><ele>3531.4</ele></trkpt>
      <trkpt lat="32.346491" lon="77.176766"><ele>3533.9</ele></trkpt>
      <trkpt lat="32.346595" lon="77.176780"><ele>3536.7</ele></trkpt>
      <trkpt lat="32.346688" lon="77.176846"><ele>3540.8</ele></trkpt>
      <trkpt lat="32.346693" lon="77.176817"><ele>3541.6</ele></trkpt>
      <trkpt lat="32.346709" lon="77.176872"><ele>3543.3</ele></trkpt>
      <trkpt lat="32.346728" lon="77.176868"><ele>3543.7</ele></trkpt>
      <trkpt lat="32.346717" lon="77.176893"><ele>3544.9</ele></trkpt>
      <trkpt lat="32.346770" lon="77.176940"><ele>3546.8</ele></trkpt>
      <trkpt lat="32.346790" lon="77.176934"><ele>3547.5</ele></trkpt>
      <trkpt lat="32.346756" lon="77.176966"><ele>3548.6</ele></trkpt>
      <trkpt lat="32.346798" lon="77.176923"><ele>3549.6</ele></trkpt>
      <trkpt lat="32.346924" lon="77.176976"><ele>3554.3</ele></trkpt>
      <trkpt lat="32.346978" lon="77.176956"><ele>3557.2</ele></trkpt>
      <trkpt lat="32.347022" lon="77.177008"><ele>3559.0</ele></trkpt>
      <trkpt lat="32.347075" lon="77.176989"><ele>3559.8</ele></trkpt>
      <trkpt lat="32.347092" lon="77.177012"><ele>3560.8</ele></trkpt>
      <trkpt lat="32.347182" lon="77.177014"><ele>3563.2</ele></trkpt>
      <trkpt lat="32.347206" lon="77.177040"><ele>3565.5</ele></trkpt>
      <trkpt lat="32.347215" lon="77.177095"><ele>3567.0</ele></trkpt>
      <trkpt lat="32.347384" lon="77.177104"><ele>3570.6</ele></trkpt>
      <trkpt lat="32.347377" lon="77.177193"><ele>3574.0</ele></trkpt>
      <trkpt lat="32.347594" lon="77.177207"><ele>3579.2</ele></trkpt>
      <trkpt lat="32.347688" lon="77.177243"><ele>3581.8</ele></trkpt>
      <trkpt lat="32.347657" lon="77.177268"><ele>3583.6</ele></trkpt>
      <trkpt lat="32.347666" lon="77.177310"><ele>3585.6</ele></trkpt>
      <trkpt lat="32.347702" lon="77.177304"><ele>3587.6</ele></trkpt>
      <trkpt lat="32.347763" lon="77.177369"><ele>3591.6</ele></trkpt>
      <trkpt lat="32.348026" lon="77.177376"><ele>3598.4</ele></trkpt>
      <trkpt lat="32.348197" lon="77.177426"><ele>3603.6</ele></trkpt>
      <trkpt lat="32.348194" lon="77.177394"><ele>3605.3</ele></trkpt>
      <trkpt lat="32.348365" lon="77.177451"><ele>3615.2</ele></trkpt>
      <trkpt lat="32.348401" lon="77.177442"><ele>3617.4</ele></trkpt>
      <trkpt lat="32.348540" lon="77.177476"><ele>3622.5</ele></trkpt>
      <trkpt lat="32.348554" lon="77.177457"><ele>3623.2</ele></trkpt>
      <trkpt lat="32.348635" lon="77.177556"><ele>3629.5</ele></trkpt>
      <trkpt lat="32.348776" lon="77.177526"><ele>3634.4</ele></trkpt>
      <trkpt lat="32.348789" lon="77.177561"><ele>3635.6</ele></trkpt>
      <trkpt lat="32.348764" lon="77.177585"><ele>3637.5</ele></trkpt>
      <trkpt lat="32.348862" lon="77.177619"><ele>3640.3</ele></trkpt>
      <trkpt lat="32.348888" lon="77.177599"><ele>3641.8</ele></trkpt>
      <trkpt lat="32.348915" lon="77.177654"><ele>3644.5</ele></trkpt>
      <trkpt lat="32.348934" lon="77.177645"><ele>3645.4</ele></trkpt>
      <trkpt lat="32.348949" lon="77.177680"><ele>3647.0</ele></trkpt>
      <trkpt lat="32.349070" lon="77.177746"><ele>3650.1</ele></trkpt>
      <trkpt lat="32.349071" lon="77.177772"><ele>3650.8</ele></trkpt>
      <trkpt lat="32.349049" lon="77.177786"><ele>3651.9</ele></trkpt>
      <trkpt lat="32.349071" lon="77.177797"><ele>3653.1</ele></trkpt>
      <trkpt lat="32.349051" lon="77.177892"><ele>3654.8</ele></trkpt>
      <trkpt lat="32.349017" lon="77.177967"><ele>3656.7</ele></trkpt>
      <trkpt lat="32.349071" lon="77.178007"><ele>3658.6</ele></trkpt>
      <trkpt lat="32.349095" lon="77.178073"><ele>3660.7</ele></trkpt>
      <trkpt lat="32.349166" lon="77.178070"><ele>3661.5</ele></trkpt>
      <trkpt lat="32.349261" lon="77.178185"><ele>3665.0</ele></trkpt>
      <trkpt lat="32.349219" lon="77.178320"><ele>3669.9</ele></trkpt>
      <trkpt lat="32.349316" lon="77.178342"><ele>3674.3</ele></trkpt>
      <trkpt lat="32.349276" lon="77.178389"><ele>3676.0</ele></trkpt>
      <trkpt lat="32.349300" lon="77.178409"><ele>3677.6</ele></trkpt>
      <trkpt lat="32.349361" lon="77.178376"><ele>3679.7</ele></trkpt>
      <trkpt lat="32.349453" lon="77.178424"><ele>3682.9</ele></trkpt>
      <trkpt lat="32.349503" lon="77.178423"><ele>3684.2</ele></trkpt>
      <trkpt lat="32.349483" lon="77.178453"><ele>3684.8</ele></trkpt>
      <trkpt lat="32.349494" lon="77.178461"><ele>3685.4</ele></trkpt>
      <trkpt lat="32.349566" lon="77.178450"><ele>3687.9</ele></trkpt>
      <trkpt lat="32.349754" lon="77.178477"><ele>3695.4</ele></trkpt>
      <trkpt lat="32.349784" lon="77.178520"><ele>3697.3</ele></trkpt>
      <trkpt lat="32.349751" lon="77.178573"><ele>3700.4</ele></trkpt>
      <trkpt lat="32.349803" lon="77.178571"><ele>3702.4</ele></trkpt>
      <trkpt lat="32.349891" lon="77.178614"><ele>3706.0</ele></trkpt>
      <trkpt lat="32.349867" lon="77.178665"><ele>3708.0</ele></trkpt>
      <trkpt lat="32.349819" lon="77.178694"><ele>3709.8</ele></trkpt>
      <trkpt lat="32.349817" lon="77.178798"><ele>3714.3</ele></trkpt>
      <trkpt lat="32.349856" lon="77.178792"><ele>3715.6</ele></trkpt>
      <trkpt lat="32.349914" lon="77.178861"><ele>3717.3</ele></trkpt>
      <trkpt lat="32.349897" lon="77.178977"><ele>3719.5</ele></trkpt>
      <trkpt lat="32.349965" lon="77.179112"><ele>3722.6</ele></trkpt>
      <trkpt lat="32.349971" lon="77.179213"><ele>3724.0</ele></trkpt>
      <trkpt lat="32.349953" lon="77.179258"><ele>3724.6</ele></trkpt>
      <trkpt lat="32.350098" lon="77.179227"><ele>3726.5</ele></trkpt>
      <trkpt lat="32.350063" lon="77.179332"><ele>3727.9</ele></trkpt>
      <trkpt lat="32.350087" lon="77.179363"><ele>3729.1</ele></trkpt>
      <trkpt lat="32.350053" lon="77.179419"><ele>3730.5</ele></trkpt>
      <trkpt lat="32.350108" lon="77.179421"><ele>3732.4</ele></trkpt>
      <trkpt lat="32.350089" lon="77.179508"><ele>3735.2</ele></trkpt>
      <trkpt lat="32.350188" lon="77.179487"><ele>3738.1</ele></trkpt>
      <trkpt lat="32.350209" lon="77.179463"><ele>3739.4</ele></trkpt>
      <trkpt lat="32.350231" lon="77.179489"><ele>3740.8</ele></trkpt>
      <trkpt lat="32.350278" lon="77.179487"><ele>3741.9</ele></trkpt>
      <trkpt lat="32.350265" lon="77.179524"><ele>3743.3</ele></trkpt>
      <trkpt lat="32.350279" lon="77.179579"><ele>3744.6</ele></trkpt>
      <trkpt lat="32.350352" lon="77.179619"><ele>3747.4</ele></trkpt>
      <trkpt lat="32.350333" lon="77.179678"><ele>3748.3</ele></trkpt>
      <trkpt lat="32.350380" lon="77.179683"><ele>3749.6</ele></trkpt>
      <trkpt lat="32.350414" lon="77.179742"><ele>3751.9</ele></trkpt>
      <trkpt lat="32.350469" lon="77.179763"><ele>3754.3</ele></trkpt>
      <trkpt lat="32.350455" lon="77.179798"><ele>3755.3</ele></trkpt>
      <trkpt lat="32.350598" lon="77.179838"><ele>3758.7</ele></trkpt>
      <trkpt lat="32.350703" lon="77.180007"><ele>3767.2</ele></trkpt>
      <trkpt lat="32.350740" lon="77.180004"><ele>3768.4</ele></trkpt>
      <trkpt lat="32.350785" lon="77.180034"><ele>3769.9</ele></trkpt>
      <trkpt lat="32.350995" lon="77.180040"><ele>3774.9</ele></trkpt>
      <trkpt lat="32.350971" lon="77.180093"><ele>3777.2</ele></trkpt>
      <trkpt lat="32.350983" lon="77.180112"><ele>3778.4</ele></trkpt>
      <trkpt lat="32.351083" lon="77.180144"><ele>3783.1</ele></trkpt>
      <trkpt lat="32.351106" lon="77.180194"><ele>3783.9</ele></trkpt>
      <trkpt lat="32.351158" lon="77.180226"><ele>3786.0</ele></trkpt>
      <trkpt lat="32.351147" lon="77.180307"><ele>3788.0</ele></trkpt>
      <trkpt lat="32.351161" lon="77.180338"><ele>3788.6</ele></trkpt>
      <trkpt lat="32.351199" lon="77.180360"><ele>3790.0</ele></trkpt>
      <trkpt lat="32.351233" lon="77.180451"><ele>3793.9</ele></trkpt>
      <trkpt lat="32.351273" lon="77.180472"><ele>3795.9</ele></trkpt>
      <trkpt lat="32.351275" lon="77.180517"><ele>3798.1</ele></trkpt>
      <trkpt lat="32.351304" lon="77.180538"><ele>3800.0</ele></trkpt>
      <trkpt lat="32.351334" lon="77.180656"><ele>3803.8</ele></trkpt>
      <trkpt lat="32.351372" lon="77.180660"><ele>3805.8</ele></trkpt>
      <trkpt lat="32.351395" lon="77.180730"><ele>3809.1</ele></trkpt>
      <trkpt lat="32.351413" lon="77.180734"><ele>3809.8</ele></trkpt>
      <trkpt lat="32.351406" lon="77.180778"><ele>3811.3</ele></trkpt>
      <trkpt lat="32.351426" lon="77.180830"><ele>3813.9</ele></trkpt>
      <trkpt lat="32.351457" lon="77.180853"><ele>3815.3</ele></trkpt>
      <trkpt lat="32.351462" lon="77.180924"><ele>3817.8</ele></trkpt>
      <trkpt lat="32.351529" lon="77.180973"><ele>3821.8</ele></trkpt>
      <trkpt lat="32.351514" lon="77.181003"><ele>3823.1</ele></trkpt>
      <trkpt lat="32.351539" lon="77.181036"><ele>3824.6</ele></trkpt>
      <trkpt lat="32.351542" lon="77.181139"><ele>3828.6</ele></trkpt>
      <trkpt lat="32.351614" lon="77.181149"><ele>3832.0</ele></trkpt>
      <trkpt lat="32.351629" lon="77.181220"><ele>3835.4</ele></trkpt>
      <trkpt lat="32.351589" lon="77.181263"><ele>3837.5</ele></trkpt>
      <trkpt lat="32.351568" lon="77.181341"><ele>3839.4</ele></trkpt>
      <trkpt lat="32.351626" lon="77.181350"><ele>3841.6</ele></trkpt>
      <trkpt lat="32.351593" lon="77.181462"><ele>3844.9</ele></trkpt>
      <trkpt lat="32.351602" lon="77.181599"><ele>3850.0</ele></trkpt>
      <trkpt lat="32.351636" lon="77.181619"><ele>3852.0</ele></trkpt>
      <trkpt lat="32.351610" lon="77.181827"><ele>3859.0</ele></trkpt>
      <trkpt lat="32.351683" lon="77.181899"><ele>3863.8</ele></trkpt>
      <trkpt lat="32.351632" lon="77.182091"><ele>3866.8</ele></trkpt>
      <trkpt lat="32.351686" lon="77.182197"><ele>3871.2</ele></trkpt>
      <trkpt lat="32.351776" lon="77.182252"><ele>3877.3</ele></trkpt>
      <trkpt lat="32.351762" lon="77.182340"><ele>3881.0</ele></trkpt>
      <trkpt lat="32.351785" lon="77.182369"><ele>3882.9</ele></trkpt>
      <trkpt lat="32.351755" lon="77.182526"><ele>3887.4</ele></trkpt>
      <trkpt lat="32.351815" lon="77.182593"><ele>3893.1</ele></trkpt>
      <trkpt lat="32.351845" lon="77.182662"><ele>3896.8</ele></trkpt>
      <trkpt lat="32.351928" lon="77.182732"><ele>3903.7</ele></trkpt>
      <trkpt lat="32.351996" lon="77.182750"><ele>3905.8</ele></trkpt>
      <trkpt lat="32.352018" lon="77.182781"><ele>3907.7</ele></trkpt>
      <trkpt lat="32.352030" lon="77.182905"><ele>3911.8</ele></trkpt>
      <trkpt lat="32.352062" lon="77.182916"><ele>3913.3</ele></trkpt>
      <trkpt lat="32.352091" lon="77.182959"><ele>3916.1</ele></trkpt>
      <trkpt lat="32.352092" lon="77.183144"><ele>3924.2</ele></trkpt>
      <trkpt lat="32.352115" lon="77.183146"><ele>3925.3</ele></trkpt>
      <trkpt lat="32.352154" lon="77.183233"><ele>3929.7</ele></trkpt>
      <trkpt lat="32.352166" lon="77.183220"><ele>3930.4</ele></trkpt>
      <trkpt lat="32.352215" lon="77.183239"><ele>3932.2</ele></trkpt>
      <trkpt lat="32.352232" lon="77.183303"><ele>3935.6</ele></trkpt>
      <trkpt lat="32.352231" lon="77.183354"><ele>3937.0</ele></trkpt>
      <trkpt lat="32.352202" lon="77.183363"><ele>3937.8</ele></trkpt>
      <trkpt lat="32.352179" lon="77.183421"><ele>3940.2</ele></trkpt>
      <trkpt lat="32.352209" lon="77.183434"><ele>3941.4</ele></trkpt>
      <trkpt lat="32.352189" lon="77.183486"><ele>3943.4</ele></trkpt>
      <trkpt lat="32.352250" lon="77.183504"><ele>3946.2</ele></trkpt>
      <trkpt lat="32.352244" lon="77.183539"><ele>3947.5</ele></trkpt>
      <trkpt lat="32.352269" lon="77.183599"><ele>3950.0</ele></trkpt>
      <trkpt lat="32.352239" lon="77.183725"><ele>3954.5</ele></trkpt>
      <trkpt lat="32.352299" lon="77.183835"><ele>3961.0</ele></trkpt>
      <trkpt lat="32.352303" lon="77.183955"><ele>3965.6</ele></trkpt>
      <trkpt lat="32.352265" lon="77.184013"><ele>3969.3</ele></trkpt>
      <trkpt lat="32.352281" lon="77.184072"><ele>3973.3</ele></trkpt>
      <trkpt lat="32.352239" lon="77.184238"><ele>3978.9</ele></trkpt>
      <trkpt lat="32.352294" lon="77.184411"><ele>3987.9</ele></trkpt>
      <trkpt lat="32.352346" lon="77.184434"><ele>3990.4</ele></trkpt>
      <trkpt lat="32.352313" lon="77.184563"><ele>3995.4</ele></trkpt>
      <trkpt lat="32.352321" lon="77.184597"><ele>3996.8</ele></trkpt>
      <trkpt lat="32.352275" lon="77.184693"><ele>4000.0</ele></trkpt>
      <trkpt lat="32.352276" lon="77.184731"><ele>4000.9</ele></trkpt>
      <trkpt lat="32.352312" lon="77.184737"><ele>4002.8</ele></trkpt>
      <trkpt lat="32.352329" lon="77.184786"><ele>4005.4</ele></trkpt>
      <trkpt lat="32.352328" lon="77.184850"><ele>4008.0</ele></trkpt>
      <trkpt lat="32.352296" lon="77.184902"><ele>4010.2</ele></trkpt>
      <trkpt lat="32.352343" lon="77.184961"><ele>4013.4</ele></trkpt>
      <trkpt lat="32.352330" lon="77.185052"><ele>4015.2</ele></trkpt>
      <trkpt lat="32.352365" lon="77.185065"><ele>4016.1</ele></trkpt>
      <trkpt lat="32.352406" lon="77.185122"><ele>4017.8</ele></trkpt>
      <trkpt lat="32.352389" lon="77.185162"><ele>4019.6</ele></trkpt>
      <trkpt lat="32.352444" lon="77.185251"><ele>4023.9</ele></trkpt>
      <trkpt lat="32.352466" lon="77.185371"><ele>4026.2</ele></trkpt>
      <trkpt lat="32.352443" lon="77.185429"><ele>4027.5</ele></trkpt>
      <trkpt lat="32.352472" lon="77.185510"><ele>4030.0</ele></trkpt>
      <trkpt lat="32.352462" lon="77.185596"><ele>4032.9</ele></trkpt>
      <trkpt lat="32.352505" lon="77.185662"><ele>4035.1</ele></trkpt>
      <trkpt lat="32.352497" lon="77.185686"><ele>4035.5</ele></trkpt>
      <trkpt lat="32.352533" lon="77.185678"><ele>4035.0</ele></trkpt>
      <trkpt lat="32.352540" lon="77.185748"><ele>4034.6</ele></trkpt>
      <trkpt lat="32.352547" lon="77.185917"><ele>4036.8</ele></trkpt>
      <trkpt lat="32.352502" lon="77.186031"><ele>4042.0</ele></trkpt>
      <trkpt lat="32.352542" lon="77.186179"><ele>4049.2</ele></trkpt>
      <trkpt lat="32.352518" lon="77.186285"><ele>4053.0</ele></trkpt>
      <trkpt lat="32.352491" lon="77.186666"><ele>4060.4</ele></trkpt>
      <trkpt lat="32.352393" lon="77.186830"><ele>4062.6</ele></trkpt>
      <trkpt lat="32.352403" lon="77.186861"><ele>4062.2</ele></trkpt>
      <trkpt lat="32.352345" lon="77.186911"><ele>4060.7</ele></trkpt>
      <trkpt lat="32.352315" lon="77.186907"><ele>4060.1</ele></trkpt>
      <trkpt lat="32.352309" lon="77.186964"><ele>4059.8</ele></trkpt>
      <trkpt lat="32.352259" lon="77.187031"><ele>4059.8</ele></trkpt>
      <trkpt lat="32.352236" lon="77.187036"><ele>4059.8</ele></trkpt>
      <trkpt lat="32.352246" lon="77.187132"><ele>4062.6</ele></trkpt>
      <trkpt lat="32.352129" lon="77.187245"><ele>4062.4</ele></trkpt>
      <trkpt lat="32.352112" lon="77.187305"><ele>4062.7</ele></trkpt>
      <trkpt lat="32.352072" lon="77.187319"><ele>4062.8</ele></trkpt>
      <trkpt lat="32.352040" lon="77.187419"><ele>4062.8</ele></trkpt>
      <trkpt lat="32.351964" lon="77.187537"><ele>4063.0</ele></trkpt>
      <trkpt lat="32.351853" lon="77.187616"><ele>4061.2</ele></trkpt>
      <trkpt lat="32.351814" lon="77.187698"><ele>4060.5</ele></trkpt>
      <trkpt lat="32.351704" lon="77.187801"><ele>4060.0</ele></trkpt>
      <trkpt lat="32.351640" lon="77.187956"><ele>4064.5</ele></trkpt>
      <trkpt lat="32.351648" lon="77.187995"><ele>4066.0</ele></trkpt>
      <trkpt lat="32.351676" lon="77.188013"><ele>4067.3</ele></trkpt>
      <trkpt lat="32.351664" lon="77.188009"><ele>4067.8</ele></trkpt>
      <trkpt lat="32.351634" lon="77.188086"><ele>4071.0</ele></trkpt>
      <trkpt lat="32.351666" lon="77.188125"><ele>4072.7</ele></trkpt>
      <trkpt lat="32.351666" lon="77.188332"><ele>4081.7</ele></trkpt>
      <trkpt lat="32.351641" lon="77.188408"><ele>4085.1</ele></trkpt>
      <trkpt lat="32.351673" lon="77.188433"><ele>4086.1</ele></trkpt>
      <trkpt lat="32.351680" lon="77.188489"><ele>4087.8</ele></trkpt>
      <trkpt lat="32.351770" lon="77.188659"><ele>4094.4</ele></trkpt>
      <trkpt lat="32.351754" lon="77.188724"><ele>4097.1</ele></trkpt>
      <trkpt lat="32.351785" lon="77.188814"><ele>4100.0</ele></trkpt>
      <trkpt lat="32.351875" lon="77.188868"><ele>4102.9</ele></trkpt>
      <trkpt lat="32.351870" lon="77.188888"><ele>4103.0</ele></trkpt>
      <trkpt lat="32.351825" lon="77.188889"><ele>4103.2</ele></trkpt>
      <trkpt lat="32.351842" lon="77.188880"><ele>4103.4</ele></trkpt>
      <trkpt lat="32.351838" lon="77.188906"><ele>4103.2</ele></trkpt>
      <trkpt lat="32.351858" lon="77.188887"><ele>4103.3</ele></trkpt>
      <trkpt lat="32.351819" lon="77.188846"><ele>4103.0</ele></trkpt>
      <trkpt lat="32.351808" lon="77.188861"><ele>4103.2</ele></trkpt>
      <trkpt lat="32.351821" lon="77.188852"><ele>4103.4</ele></trkpt>
      <trkpt lat="32.351793" lon="77.188819"><ele>4103.8</ele></trkpt>
      <trkpt lat="32.351853" lon="77.188864"><ele>4103.7</ele></trkpt>
      <trkpt lat="32.351732" lon="77.188759"><ele>4100.1</ele></trkpt>
      <trkpt lat="32.351726" lon="77.188708"><ele>4098.7</ele></trkpt>
      <trkpt lat="32.351690" lon="77.188647"><ele>4096.7</ele></trkpt>
      <trkpt lat="32.351712" lon="77.188599"><ele>4095.8</ele></trkpt>
      <trkpt lat="32.351678" lon="77.188475"><ele>4091.1</ele></trkpt>
      <trkpt lat="32.351667" lon="77.188278"><ele>4084.1</ele></trkpt>
      <trkpt lat="32.351639" lon="77.188139"><ele>4079.1</ele></trkpt>
      <trkpt lat="32.351654" lon="77.188009"><ele>4073.5</ele></trkpt>
      <trkpt lat="32.351593" lon="77.187859"><ele>4069.3</ele></trkpt>
      <trkpt lat="32.351590" lon="77.187800"><ele>4066.8</ele></trkpt>
      <trkpt lat="32.351681" lon="77.187665"><ele>4063.4</ele></trkpt>
      <trkpt lat="32.351689" lon="77.187604"><ele>4062.6</ele></trkpt>
      <trkpt lat="32.351669" lon="77.187515"><ele>4061.8</ele></trkpt>
      <trkpt lat="32.351691" lon="77.187423"><ele>4061.6</ele></trkpt>
      <trkpt lat="32.351768" lon="77.187395"><ele>4061.9</ele></trkpt>
      <trkpt lat="32.351923" lon="77.187212"><ele>4063.4</ele></trkpt>
      <trkpt lat="32.352080" lon="77.186857"><ele>4060.8</ele></trkpt>
      <trkpt lat="32.352172" lon="77.186729"><ele>4059.5</ele></trkpt>
      <trkpt lat="32.352196" lon="77.186583"><ele>4056.0</ele></trkpt>
      <trkpt lat="32.352227" lon="77.186572"><ele>4055.1</ele></trkpt>
      <trkpt lat="32.352230" lon="77.186517"><ele>4054.6</ele></trkpt>
      <trkpt lat="32.352300" lon="77.186365"><ele>4052.6</ele></trkpt>
      <trkpt lat="32.352274" lon="77.186384"><ele>4051.0</ele></trkpt>
      <trkpt lat="32.352154" lon="77.186369"><ele>4046.8</ele></trkpt>
      <trkpt lat="32.352016" lon="77.186219"><ele>4037.5</ele></trkpt>
      <trkpt lat="32.351966" lon="77.186187"><ele>4035.2</ele></trkpt>
      <trkpt lat="32.351914" lon="77.186193"><ele>4033.2</ele></trkpt>
      <trkpt lat="32.351904" lon="77.186145"><ele>4032.2</ele></trkpt>
      <trkpt lat="32.351840" lon="77.186067"><ele>4028.9</ele></trkpt>
      <trkpt lat="32.351823" lon="77.186007"><ele>4027.1</ele></trkpt>
      <trkpt lat="32.351834" lon="77.185906"><ele>4024.1</ele></trkpt>
      <trkpt lat="32.351792" lon="77.185856"><ele>4021.4</ele></trkpt>
      <trkpt lat="32.351805" lon="77.185808"><ele>4019.5</ele></trkpt>
      <trkpt lat="32.351798" lon="77.185638"><ele>4013.2</ele></trkpt>
      <trkpt lat="32.351756" lon="77.185558"><ele>4009.4</ele></trkpt>
      <trkpt lat="32.351654" lon="77.185442"><ele>4004.9</ele></trkpt>
      <trkpt lat="32.351632" lon="77.185333"><ele>4000.8</ele></trkpt>
      <trkpt lat="32.351594" lon="77.185338"><ele>3998.1</ele></trkpt>
      <trkpt lat="32.351461" lon="77.185152"><ele>3988.8</ele></trkpt>
      <trkpt lat="32.351478" lon="77.184840"><ele>3979.9</ele></trkpt>
      <trkpt lat="32.351512" lon="77.184695"><ele>3975.0</ele></trkpt>
      <trkpt lat="32.351475" lon="77.184691"><ele>3973.2</ele></trkpt>
      <trkpt lat="32.351465" lon="77.184668"><ele>3971.3</ele></trkpt>
      <trkpt lat="32.351537" lon="77.184531"><ele>3967.0</ele></trkpt>
      <trkpt lat="32.351446" lon="77.184546"><ele>3964.0</ele></trkpt>
      <trkpt lat="32.351395" lon="77.184517"><ele>3961.4</ele></trkpt>
      <trkpt lat="32.351353" lon="77.184438"><ele>3956.8</ele></trkpt>
      <trkpt lat="32.351266" lon="77.184428"><ele>3952.4</ele></trkpt>
      <trkpt lat="32.351255" lon="77.184346"><ele>3949.3</ele></trkpt>
      <trkpt lat="32.351201" lon="77.184284"><ele>3946.5</ele></trkpt>
      <trkpt lat="32.351202" lon="77.184139"><ele>3941.1</ele></trkpt>
      <trkpt lat="32.351252" lon="77.184020"><ele>3936.9</ele></trkpt>
      <trkpt lat="32.351168" lon="77.184011"><ele>3935.6</ele></trkpt>
      <trkpt lat="32.351088" lon="77.183946"><ele>3930.7</ele></trkpt>
      <trkpt lat="32.350998" lon="77.183941"><ele>3925.6</ele></trkpt>
      <trkpt lat="32.351004" lon="77.183858"><ele>3923.4</ele></trkpt>
      <trkpt lat="32.351042" lon="77.183788"><ele>3920.6</ele></trkpt>
      <trkpt lat="32.350991" lon="77.183812"><ele>3918.6</ele></trkpt>
      <trkpt lat="32.350939" lon="77.183761"><ele>3915.9</ele></trkpt>
      <trkpt lat="32.350844" lon="77.183725"><ele>3911.2</ele></trkpt>
      <trkpt lat="32.350771" lon="77.183661"><ele>3906.2</ele></trkpt>
      <trkpt lat="32.350719" lon="77.183650"><ele>3903.6</ele></trkpt>
      <trkpt lat="32.350629" lon="77.183721"><ele>3899.4</ele></trkpt>
      <trkpt lat="32.350566" lon="77.183719"><ele>3896.7</ele></trkpt>
      <trkpt lat="32.350455" lon="77.183670"><ele>3892.0</ele></trkpt>
      <trkpt lat="32.350485" lon="77.183588"><ele>3888.8</ele></trkpt>
      <trkpt lat="32.350333" lon="77.183587"><ele>3883.9</ele></trkpt>
      <trkpt lat="32.350306" lon="77.183539"><ele>3881.0</ele></trkpt>
      <trkpt lat="32.350227" lon="77.183547"><ele>3877.0</ele></trkpt>
      <trkpt lat="32.350212" lon="77.183527"><ele>3876.3</ele></trkpt>
      <trkpt lat="32.350272" lon="77.183293"><ele>3872.0</ele></trkpt>
      <trkpt lat="32.350333" lon="77.183214"><ele>3869.2</ele></trkpt>
      <trkpt lat="32.350346" lon="77.183232"><ele>3868.6</ele></trkpt>
      <trkpt lat="32.350313" lon="77.183244"><ele>3867.3</ele></trkpt>
      <trkpt lat="32.350352" lon="77.183125"><ele>3863.5</ele></trkpt>
      <trkpt lat="32.350299" lon="77.183104"><ele>3860.6</ele></trkpt>
      <trkpt lat="32.350297" lon="77.183084"><ele>3859.8</ele></trkpt>
      <trkpt lat="32.350336" lon="77.182939"><ele>3855.2</ele></trkpt>
      <trkpt lat="32.350278" lon="77.182962"><ele>3853.0</ele></trkpt>
      <trkpt lat="32.350218" lon="77.182948"><ele>3850.6</ele></trkpt>
      <trkpt lat="32.350215" lon="77.182902"><ele>3848.6</ele></trkpt>
      <trkpt lat="32.350163" lon="77.182901"><ele>3846.3</ele></trkpt>
      <trkpt lat="32.350168" lon="77.182869"><ele>3845.0</ele></trkpt>
      <trkpt lat="32.350129" lon="77.182767"><ele>3841.4</ele></trkpt>
      <trkpt lat="32.350240" lon="77.182489"><ele>3832.4</ele></trkpt>
      <trkpt lat="32.350256" lon="77.182367"><ele>3828.0</ele></trkpt>
      <trkpt lat="32.350201" lon="77.182366"><ele>3825.9</ele></trkpt>
      <trkpt lat="32.350223" lon="77.182284"><ele>3821.7</ele></trkpt>
      <trkpt lat="32.350337" lon="77.182166"><ele>3816.0</ele></trkpt>
      <trkpt lat="32.350312" lon="77.182197"><ele>3814.7</ele></trkpt>
      <trkpt lat="32.350231" lon="77.182175"><ele>3813.3</ele></trkpt>
      <trkpt lat="32.350242" lon="77.182107"><ele>3811.2</ele></trkpt>
      <trkpt lat="32.350216" lon="77.182054"><ele>3809.4</ele></trkpt>
      <trkpt lat="32.350075" lon="77.181979"><ele>3803.2</ele></trkpt>
      <trkpt lat="32.350063" lon="77.181963"><ele>3802.3</ele></trkpt>
      <trkpt lat="32.350081" lon="77.181921"><ele>3798.9</ele></trkpt>
      <trkpt lat="32.349981" lon="77.181903"><ele>3796.2</ele></trkpt>
      <trkpt lat="32.349964" lon="77.181847"><ele>3793.0</ele></trkpt>
      <trkpt lat="32.350006" lon="77.181746"><ele>3789.6</ele></trkpt>
      <trkpt lat="32.349914" lon="77.181704"><ele>3785.2</ele></trkpt>
      <trkpt lat="32.349887" lon="77.181624"><ele>3780.8</ele></trkpt>
      <trkpt lat="32.349833" lon="77.181585"><ele>3777.1</ele></trkpt>
      <trkpt lat="32.349770" lon="77.181579"><ele>3775.0</ele></trkpt>
      <trkpt lat="32.349756" lon="77.181523"><ele>3773.2</ele></trkpt>
      <trkpt lat="32.349730" lon="77.181503"><ele>3771.2</ele></trkpt>
      <trkpt lat="32.349732" lon="77.181467"><ele>3769.5</ele></trkpt>
      <trkpt lat="32.349742" lon="77.181434"><ele>3768.6</ele></trkpt>
      <trkpt lat="32.349790" lon="77.181397"><ele>3765.9</ele></trkpt>
      <trkpt lat="32.349800" lon="77.181315"><ele>3763.9</ele></trkpt>
      <trkpt lat="32.349778" lon="77.181262"><ele>3760.6</ele></trkpt>
      <trkpt lat="32.349721" lon="77.181241"><ele>3757.3</ele></trkpt>
      <trkpt lat="32.349664" lon="77.181140"><ele>3753.9</ele></trkpt>
      <trkpt lat="32.349531" lon="77.181141"><ele>3748.9</ele></trkpt>
      <trkpt lat="32.349484" lon="77.181064"><ele>3745.9</ele></trkpt>
      <trkpt lat="32.349439" lon="77.181044"><ele>3744.4</ele></trkpt>
      <trkpt lat="32.349311" lon="77.181018"><ele>3740.4</ele></trkpt>
      <trkpt lat="32.349253" lon="77.181073"><ele>3736.7</ele></trkpt>
      <trkpt lat="32.349233" lon="77.181034"><ele>3736.0</ele></trkpt>
      <trkpt lat="32.349275" lon="77.180884"><ele>3734.2</ele></trkpt>
      <trkpt lat="32.349377" lon="77.180726"><ele>3731.5</ele></trkpt>
      <trkpt lat="32.349337" lon="77.180710"><ele>3729.7</ele></trkpt>
      <trkpt lat="32.349341" lon="77.180649"><ele>3727.1</ele></trkpt>
      <trkpt lat="32.349469" lon="77.180516"><ele>3723.7</ele></trkpt>
      <trkpt lat="32.349469" lon="77.180453"><ele>3720.2</ele></trkpt>
      <trkpt lat="32.349524" lon="77.180422"><ele>3718.2</ele></trkpt>
      <trkpt lat="32.349496" lon="77.180394"><ele>3717.1</ele></trkpt>
      <trkpt lat="32.349572" lon="77.180115"><ele>3710.8</ele></trkpt>
      <trkpt lat="32.349550" lon="77.180094"><ele>3709.7</ele></trkpt>
      <trkpt lat="32.349503" lon="77.180097"><ele>3707.8</ele></trkpt>
      <trkpt lat="32.349514" lon="77.180010"><ele>3702.8</ele></trkpt>
      <trkpt lat="32.349482" lon="77.179967"><ele>3699.8</ele></trkpt>
      <trkpt lat="32.349519" lon="77.179962"><ele>3698.2</ele></trkpt>
      <trkpt lat="32.349609" lon="77.179737"><ele>3696.0</ele></trkpt>
      <trkpt lat="32.349643" lon="77.179585"><ele>3692.2</ele></trkpt>
      <trkpt lat="32.349651" lon="77.179352"><ele>3691.4</ele></trkpt>
      <trkpt lat="32.349595" lon="77.179179"><ele>3690.0</ele></trkpt>
      <trkpt lat="32.349605" lon="77.179092"><ele>3689.2</ele></trkpt>
      <trkpt lat="32.349577" lon="77.179061"><ele>3688.0</ele></trkpt>
      <trkpt lat="32.349551" lon="77.178949"><ele>3685.3</ele></trkpt>
      <trkpt lat="32.349512" lon="77.178872"><ele>3683.7</ele></trkpt>
      <trkpt lat="32.349499" lon="77.178721"><ele>3682.3</ele></trkpt>
      <trkpt lat="32.349525" lon="77.178547"><ele>3683.6</ele></trkpt>
      <trkpt lat="32.349504" lon="77.178504"><ele>3684.6</ele></trkpt>
      <trkpt lat="32.349462" lon="77.178230"><ele>3683.8</ele></trkpt>
      <trkpt lat="32.349396" lon="77.178213"><ele>3681.0</ele></trkpt>
      <trkpt lat="32.349384" lon="77.178190"><ele>3679.8</ele></trkpt>
      <trkpt lat="32.349402" lon="77.178026"><ele>3675.4</ele></trkpt>
      <trkpt lat="32.349392" lon="77.177965"><ele>3674.2</ele></trkpt>
      <trkpt lat="32.349349" lon="77.177910"><ele>3673.0</ele></trkpt>
      <trkpt lat="32.349246" lon="77.177853"><ele>3668.8</ele></trkpt>
      <trkpt lat="32.349014" lon="77.177578"><ele>3655.1</ele></trkpt>
      <trkpt lat="32.348815" lon="77.177483"><ele>3643.7</ele></trkpt>
      <trkpt lat="32.348672" lon="77.177445"><ele>3634.9</ele></trkpt>
      <trkpt lat="32.348627" lon="77.177395"><ele>3631.5</ele></trkpt>
      <trkpt lat="32.348468" lon="77.177379"><ele>3623.2</ele></trkpt>
      <trkpt lat="32.348328" lon="77.177321"><ele>3618.0</ele></trkpt>
      <trkpt lat="32.348235" lon="77.177367"><ele>3612.6</ele></trkpt>
      <trkpt lat="32.348056" lon="77.177313"><ele>3605.0</ele></trkpt>
      <trkpt lat="32.347809" lon="77.177302"><ele>3599.6</ele></trkpt>
      <trkpt lat="32.347779" lon="77.177273"><ele>3597.3</ele></trkpt>
      <trkpt lat="32.347580" lon="77.177217"><ele>3590.2</ele></trkpt>
      <trkpt lat="32.347543" lon="77.177177"><ele>3587.1</ele></trkpt>
      <trkpt lat="32.347549" lon="77.177122"><ele>3584.3</ele></trkpt>
      <trkpt lat="32.347438" lon="77.177099"><ele>3581.0</ele></trkpt>
      <trkpt lat="32.347181" lon="77.176946"><ele>3571.0</ele></trkpt>
      <trkpt lat="32.346938" lon="77.176909"><ele>3561.9</ele></trkpt>
      <trkpt lat="32.346795" lon="77.176833"><ele>3555.5</ele></trkpt>
      <trkpt lat="32.346756" lon="77.176836"><ele>3554.4</ele></trkpt>
      <trkpt lat="32.346650" lon="77.176769"><ele>3548.7</ele></trkpt>
      <trkpt lat="32.346528" lon="77.176748"><ele>3544.8</ele></trkpt>
      <trkpt lat="32.346461" lon="77.176684"><ele>3541.5</ele></trkpt>
      <trkpt lat="32.346240" lon="77.176709"><ele>3535.6</ele></trkpt>
      <trkpt lat="32.346076" lon="77.176592"><ele>3530.6</ele></trkpt>
      <trkpt lat="32.345996" lon="77.176371"><ele>3524.9</ele></trkpt>
      <trkpt lat="32.345962" lon="77.176321"><ele>3523.5</ele></trkpt>
      <trkpt lat="32.345895" lon="77.176311"><ele>3520.8</ele></trkpt>
      <trkpt lat="32.345848" lon="77.176336"><ele>3519.4</ele></trkpt>
      <trkpt lat="32.345799" lon="77.176323"><ele>3516.6</ele></trkpt>
      <trkpt lat="32.345706" lon="77.176155"><ele>3510.2</ele></trkpt>
      <trkpt lat="32.345655" lon="77.176147"><ele>3507.0</ele></trkpt>
      <trkpt lat="32.345542" lon="77.176181"><ele>3500.5</ele></trkpt>
      <trkpt lat="32.345285" lon="77.176353"><ele>3488.1</ele></trkpt>
      <trkpt lat="32.345086" lon="77.176371"><ele>3482.2</ele></trkpt>
      <trkpt lat="32.344987" lon="77.176332"><ele>3479.4</ele></trkpt>
      <trkpt lat="32.344851" lon="77.175968"><ele>3468.6</ele></trkpt>
      <trkpt lat="32.344728" lon="77.175832"><ele>3463.7</ele></trkpt>
      <trkpt lat="32.344661" lon="77.175688"><ele>3457.5</ele></trkpt>
      <trkpt lat="32.344402" lon="77.175550"><ele>3451.6</ele></trkpt>
      <trkpt lat="32.344280" lon="77.175429"><ele>3445.6</ele></trkpt>
      <trkpt lat="32.344112" lon="77.175418"><ele>3441.0</ele></trkpt>
      <trkpt lat="32.344075" lon="77.175397"><ele>3440.3</ele></trkpt>
      <trkpt lat="32.343984" lon="77.175286"><ele>3438.7</ele></trkpt>
      <trkpt lat="32.343732" lon="77.175101"><ele>3429.9</ele></trkpt>
      <trkpt lat="32.343534" lon="77.174735"><ele>3417.6</ele></trkpt>
      <trkpt lat="32.343290" lon="77.174576"><ele>3407.8</ele></trkpt>
      <trkpt lat="32.343239" lon="77.174519"><ele>3405.0</ele></trkpt>
      <trkpt lat="32.343143" lon="77.174290"><ele>3397.2</ele></trkpt>
      <trkpt lat="32.342883" lon="77.173994"><ele>3383.2</ele></trkpt>
      <trkpt lat="32.342784" lon="77.173911"><ele>3379.2</ele></trkpt>
      <trkpt lat="32.342593" lon="77.173666"><ele>3372.1</ele></trkpt>
      <trkpt lat="32.342515" lon="77.173611"><ele>3369.5</ele></trkpt>
      <trkpt lat="32.342395" lon="77.173376"><ele>3363.0</ele></trkpt>
      <trkpt lat="32.342340" lon="77.173353"><ele>3361.4</ele></trkpt>
      <trkpt lat="32.342109" lon="77.173144"><ele>3356.9</ele></trkpt>
      <trkpt lat="32.341996" lon="77.173089"><ele>3355.0</ele></trkpt>
      <trkpt lat="32.341898" lon="77.172865"><ele>3354.6</ele></trkpt>
      <trkpt lat="32.341846" lon="77.172803"><ele>3354.6</ele></trkpt>
      <trkpt lat="32.341650" lon="77.172688"><ele>3354.8</ele></trkpt>
      <trkpt lat="32.341592" lon="77.172720"><ele>3354.6</ele></trkpt>
      <trkpt lat="32.341530" lon="77.172701"><ele>3354.4</ele></trkpt>
      <trkpt lat="32.341331" lon="77.172519"><ele>3353.3</ele></trkpt>
      <trkpt lat="32.341134" lon="77.172404"><ele>3350.4</ele></trkpt>
      <trkpt lat="32.341057" lon="77.172308"><ele>3347.5</ele></trkpt>
      <trkpt lat="32.340923" lon="77.172216"><ele>3345.0</ele></trkpt>
      <trkpt lat="32.340798" lon="77.172053"><ele>3340.5</ele></trkpt>
      <trkpt lat="32.340640" lon="77.171937"><ele>3337.0</ele></trkpt>
      <trkpt lat="32.340448" lon="77.171878"><ele>3332.5</ele></trkpt>
      <trkpt lat="32.340226" lon="77.171850"><ele>3328.1</ele></trkpt>
      <trkpt lat="32.339990" lon="77.171615"><ele>3320.6</ele></trkpt>
      <trkpt lat="32.339670" lon="77.171373"><ele>3310.9</ele></trkpt>
      <trkpt lat="32.339598" lon="77.171271"><ele>3309.2</ele></trkpt>
      <trkpt lat="32.339552" lon="77.171083"><ele>3306.3</ele></trkpt>
      <trkpt lat="32.339452" lon="77.170945"><ele>3302.4</ele></trkpt>
      <trkpt lat="32.339187" lon="77.170799"><ele>3294.3</ele></trkpt>
      <trkpt lat="32.338878" lon="77.170483"><ele>3284.7</ele></trkpt>
      <trkpt lat="32.338691" lon="77.170386"><ele>3278.5</ele></trkpt>
      <trkpt lat="32.338582" lon="77.170305"><ele>3275.8</ele></trkpt>
      <trkpt lat="32.338546" lon="77.170293"><ele>3274.9</ele></trkpt>
      <trkpt lat="32.338472" lon="77.170320"><ele>3272.2</ele></trkpt>
      <trkpt lat="32.338353" lon="77.170271"><ele>3268.3</ele></trkpt>
      <trkpt lat="32.338080" lon="77.169964"><ele>3259.7</ele></trkpt>
      <trkpt lat="32.337854" lon="77.169790"><ele>3250.6</ele></trkpt>
      <trkpt lat="32.337809" lon="77.169778"><ele>3248.9</ele></trkpt>
      <trkpt lat="32.337575" lon="77.169859"><ele>3240.9</ele></trkpt>
      <trkpt lat="32.337262" lon="77.169809"><ele>3229.7</ele></trkpt>
      <trkpt lat="32.337128" lon="77.169719"><ele>3226.1</ele></trkpt>
      <trkpt lat="32.337087" lon="77.169645"><ele>3222.6</ele></trkpt>
      <trkpt lat="32.336954" lon="77.169502"><ele>3217.7</ele></trkpt>
      <trkpt lat="32.336771" lon="77.169401"><ele>3212.7</ele></trkpt>
      <trkpt lat="32.336689" lon="77.169442"><ele>3209.2</ele></trkpt>
      <trkpt lat="32.336696" lon="77.169362"><ele>3206.6</ele></trkpt>
      <trkpt lat="32.336646" lon="77.169189"><ele>3204.3</ele></trkpt>
      <trkpt lat="32.336603" lon="77.169127"><ele>3202.9</ele></trkpt>
      <trkpt lat="32.336573" lon="77.169105"><ele>3202.5</ele></trkpt>
      <trkpt lat="32.336562" lon="77.169116"><ele>3202.1</ele></trkpt>
      <trkpt lat="32.336573" lon="77.169133"><ele>3201.9</ele></trkpt>
      <trkpt lat="32.336861" lon="77.168533"><ele>3201.8</ele></trkpt>
      <trkpt lat="32.336951" lon="77.168416"><ele>3196.7</ele></trkpt>
      <trkpt lat="32.336966" lon="77.168368"><ele>3195.9</ele></trkpt>
      <trkpt lat="32.336965" lon="77.168209"><ele>3194.1</ele></trkpt>
      <trkpt lat="32.336986" lon="77.168153"><ele>3193.2</ele></trkpt>
      <trkpt lat="32.337111" lon="77.168065"><ele>3190.8</ele></trkpt>
      <trkpt lat="32.337125" lon="77.168006"><ele>3189.0</ele></trkpt>
      <trkpt lat="32.337089" lon="77.167945"><ele>3186.4</ele></trkpt>
      <trkpt lat="32.337087" lon="77.167852"><ele>3183.8</ele></trkpt>
      <trkpt lat="32.337054" lon="77.167795"><ele>3182.1</ele></trkpt>
      <trkpt lat="32.336968" lon="77.167763"><ele>3179.0</ele></trkpt>
      <trkpt lat="32.336932" lon="77.167777"><ele>3177.2</ele></trkpt>
      <trkpt lat="32.336908" lon="77.167740"><ele>3176.3</ele></trkpt>
      <trkpt lat="32.336917" lon="77.167653"><ele>3173.1</ele></trkpt>
      <trkpt lat="32.336890" lon="77.167443"><ele>3167.9</ele></trkpt>
      <trkpt lat="32.336933" lon="77.167265"><ele>3163.8</ele></trkpt>
      <trkpt lat="32.336870" lon="77.167120"><ele>3159.4</ele></trkpt>
      <trkpt lat="32.336888" lon="77.167048"><ele>3158.4</ele></trkpt>
      <trkpt lat="32.336919" lon="77.167020"><ele>3156.5</ele></trkpt>
      <trkpt lat="32.336899" lon="77.166918"><ele>3151.7</ele></trkpt>
      <trkpt lat="32.336931" lon="77.166849"><ele>3149.6</ele></trkpt>
      <trkpt lat="32.336918" lon="77.166791"><ele>3148.0</ele></trkpt>
      <trkpt lat="32.336849" lon="77.166736"><ele>3144.7</ele></trkpt>
      <trkpt lat="32.336835" lon="77.166744"><ele>3142.7</ele></trkpt>
      <trkpt lat="32.336806" lon="77.166705"><ele>3140.4</ele></trkpt>
      <trkpt lat="32.336541" lon="77.166730"><ele>3132.8</ele></trkpt>
      <trkpt lat="32.336461" lon="77.166714"><ele>3131.1</ele></trkpt>
      <trkpt lat="32.336415" lon="77.166670"><ele>3128.4</ele></trkpt>
      <trkpt lat="32.335962" lon="77.166793"><ele>3117.4</ele></trkpt>
      <trkpt lat="32.335838" lon="77.166862"><ele>3110.6</ele></trkpt>
      <trkpt lat="32.335648" lon="77.166899"><ele>3103.4</ele></trkpt>
      <trkpt lat="32.335478" lon="77.166840"><ele>3099.8</ele></trkpt>
      <trkpt lat="32.335230" lon="77.166825"><ele>3093.6</ele></trkpt>
      <trkpt lat="32.335088" lon="77.166865"><ele>3091.3</ele></trkpt>
      <trkpt lat="32.335000" lon="77.166853"><ele>3088.7</ele></trkpt>
      <trkpt lat="32.334888" lon="77.166752"><ele>3084.6</ele></trkpt>
      <trkpt lat="32.334858" lon="77.166445"><ele>3076.2</ele></trkpt>
      <trkpt lat="32.334815" lon="77.166317"><ele>3073.0</ele></trkpt>
      <trkpt lat="32.334850" lon="77.166244"><ele>3070.3</ele></trkpt>
      <trkpt lat="32.334725" lon="77.166145"><ele>3068.0</ele></trkpt>
      <trkpt lat="32.334617" lon="77.166008"><ele>3065.9</ele></trkpt>
      <trkpt lat="32.334419" lon="77.165695"><ele>3053.0</ele></trkpt>
      <trkpt lat="32.334266" lon="77.165573"><ele>3048.8</ele></trkpt>
      <trkpt lat="32.334259" lon="77.165531"><ele>3046.9</ele></trkpt>
      <trkpt lat="32.334289" lon="77.165427"><ele>3043.6</ele></trkpt>
      <trkpt lat="32.334267" lon="77.165341"><ele>3040.0</ele></trkpt>
      <trkpt lat="32.334203" lon="77.165278"><ele>3037.0</ele></trkpt>
      <trkpt lat="32.334230" lon="77.165181"><ele>3034.6</ele></trkpt>
      <trkpt lat="32.334167" lon="77.165124"><ele>3032.6</ele></trkpt>
      <trkpt lat="32.333973" lon="77.164865"><ele>3028.1</ele></trkpt>
      <trkpt lat="32.333978" lon="77.164845"><ele>3027.2</ele></trkpt>
      <trkpt lat="32.334027" lon="77.164840"><ele>3025.6</ele></trkpt>
      <trkpt lat="32.334255" lon="77.164927"><ele>3022.8</ele></trkpt>
      <trkpt lat="32.334458" lon="77.164960"><ele>3019.6</ele></trkpt>
      <trkpt lat="32.334660" lon="77.164794"><ele>3017.2</ele></trkpt>
      <trkpt lat="32.335005" lon="77.164558"><ele>3015.6</ele></trkpt>
      <trkpt lat="32.335078" lon="77.164538"><ele>3014.6</ele></trkpt>
      <trkpt lat="32.335100" lon="77.164503"><ele>3014.0</ele></trkpt>
      <trkpt lat="32.335102" lon="77.164423"><ele>3013.9</ele></trkpt>
      <trkpt lat="32.335065" lon="77.164334"><ele>3013.5</ele></trkpt>
      <trkpt lat="32.334948" lon="77.164149"><ele>3007.6</ele></trkpt>
      <trkpt lat="32.334944" lon="77.163934"><ele>3001.3</ele></trkpt>
      <trkpt lat="32.334996" lon="77.163874"><ele>3000.3</ele></trkpt>
      <trkpt lat="32.335008" lon="77.163832"><ele>2999.3</ele></trkpt>
      <trkpt lat="32.335034" lon="77.163702"><ele>2998.0</ele></trkpt>
      <trkpt lat="32.335035" lon="77.163560"><ele>2996.3</ele></trkpt>
      <trkpt lat="32.334912" lon="77.163431"><ele>2992.8</ele></trkpt>
      <trkpt lat="32.334918" lon="77.163317"><ele>2991.3</ele></trkpt>
      <trkpt lat="32.334827" lon="77.163249"><ele>2988.8</ele></trkpt>
      <trkpt lat="32.334740" lon="77.162996"><ele>2986.5</ele></trkpt>
      <trkpt lat="32.334749" lon="77.162903"><ele>2985.6</ele></trkpt>
      <trkpt lat="32.334821" lon="77.162765"><ele>2983.2</ele></trkpt>
      <trkpt lat="32.334926" lon="77.162685"><ele>2982.1</ele></trkpt>
      <trkpt lat="32.335116" lon="77.162491"><ele>2977.8</ele></trkpt>
      <trkpt lat="32.335162" lon="77.162386"><ele>2976.0</ele></trkpt>
      <trkpt lat="32.335237" lon="77.162329"><ele>2972.2</ele></trkpt>
      <trkpt lat="32.335423" lon="77.162302"><ele>2966.1</ele></trkpt>
      <trkpt lat="32.335543" lon="77.162214"><ele>2962.4</ele></trkpt>
      <trkpt lat="32.335467" lon="77.162145"><ele>2958.9</ele></trkpt>
      <trkpt lat="32.335466" lon="77.162079"><ele>2956.2</ele></trkpt>
      <trkpt lat="32.335340" lon="77.161967"><ele>2952.3</ele></trkpt>
      <trkpt lat="32.335310" lon="77.161967"><ele>2951.6</ele></trkpt>
      <trkpt lat="32.335321" lon="77.161933"><ele>2949.8</ele></trkpt>
      <trkpt lat="32.335252" lon="77.161928"><ele>2948.1</ele></trkpt>
      <trkpt lat="32.335123" lon="77.161694"><ele>2942.0</ele></trkpt>
      <trkpt lat="32.334932" lon="77.161562"><ele>2935.2</ele></trkpt>
      <trkpt lat="32.334708" lon="77.161441"><ele>2924.1</ele></trkpt>
      <trkpt lat="32.334631" lon="77.161312"><ele>2921.9</ele></trkpt>
      <trkpt lat="32.334612" lon="77.161248"><ele>2920.8</ele></trkpt>
      <trkpt lat="32.334616" lon="77.161147"><ele>2919.2</ele></trkpt>
      <trkpt lat="32.334585" lon="77.161094"><ele>2917.8</ele></trkpt>
      <trkpt lat="32.334408" lon="77.161055"><ele>2911.9</ele></trkpt>
      <trkpt lat="32.334323" lon="77.161080"><ele>2909.6</ele></trkpt>
      <trkpt lat="32.334267" lon="77.161043"><ele>2908.6</ele></trkpt>
      <trkpt lat="32.334229" lon="77.160932"><ele>2906.0</ele></trkpt>
      <trkpt lat="32.334187" lon="77.160902"><ele>2903.9</ele></trkpt>
      <trkpt lat="32.334018" lon="77.160875"><ele>2901.2</ele></trkpt>
      <trkpt lat="32.333968" lon="77.160823"><ele>2899.2</ele></trkpt>
      <trkpt lat="32.333928" lon="77.160844"><ele>2897.7</ele></trkpt>
      <trkpt lat="32.333884" lon="77.160821"><ele>2895.1</ele></trkpt>
      <trkpt lat="32.333772" lon="77.160820"><ele>2892.1</ele></trkpt>
      <trkpt lat="32.333557" lon="77.160651"><ele>2886.0</ele></trkpt>
      <trkpt lat="32.333490" lon="77.160530"><ele>2882.2</ele></trkpt>
      <trkpt lat="32.333397" lon="77.160510"><ele>2879.2</ele></trkpt>
      <trkpt lat="32.333381" lon="77.160484"><ele>2877.0</ele></trkpt>
      <trkpt lat="32.333280" lon="77.160523"><ele>2875.1</ele></trkpt>
      <trkpt lat="32.333204" lon="77.160512"><ele>2872.2</ele></trkpt>
      <trkpt lat="32.332990" lon="77.160568"><ele>2865.0</ele></trkpt>
      <trkpt lat="32.332968" lon="77.160532"><ele>2862.9</ele></trkpt>
      <trkpt lat="32.332851" lon="77.160509"><ele>2860.7</ele></trkpt>
      <trkpt lat="32.332836" lon="77.160476"><ele>2860.1</ele></trkpt>
      <trkpt lat="32.332690" lon="77.160516"><ele>2855.9</ele></trkpt>
      <trkpt lat="32.332619" lon="77.160499"><ele>2853.8</ele></trkpt>
      <trkpt lat="32.332598" lon="77.160468"><ele>2853.0</ele></trkpt>
      <trkpt lat="32.332456" lon="77.160468"><ele>2851.0</ele></trkpt>
      <trkpt lat="32.332411" lon="77.160372"><ele>2850.5</ele></trkpt>
      <trkpt lat="32.332446" lon="77.160360"><ele>2849.8</ele></trkpt>
      <trkpt lat="32.332455" lon="77.160382"><ele>2849.1</ele></trkpt>
      <trkpt lat="32.332397" lon="77.160414"><ele>2848.8</ele></trkpt>
      <trkpt lat="32.332171" lon="77.160379"><ele>2846.7</ele></trkpt>
      <trkpt lat="32.331895" lon="77.160402"><ele>2842.3</ele></trkpt>
      <trkpt lat="32.331714" lon="77.160377"><ele>2839.2</ele></trkpt>
      <trkpt lat="32.331610" lon="77.160308"><ele>2836.4</ele></trkpt>
      <trkpt lat="32.331499" lon="77.160286"><ele>2832.7</ele></trkpt>
      <trkpt lat="32.331325" lon="77.160317"><ele>2828.8</ele></trkpt>
      <trkpt lat="32.331268" lon="77.160234"><ele>2827.1</ele></trkpt>
      <trkpt lat="32.331172" lon="77.160174"><ele>2823.9</ele></trkpt>
      <trkpt lat="32.331153" lon="77.160096"><ele>2821.6</ele></trkpt>
      <trkpt lat="32.331178" lon="77.160068"><ele>2819.4</ele></trkpt>
      <trkpt lat="32.331159" lon="77.160059"><ele>2818.4</ele></trkpt>
      <trkpt lat="32.331184" lon="77.160021"><ele>2816.6</ele></trkpt>
      <trkpt lat="32.331137" lon="77.159992"><ele>2814.9</ele></trkpt>
      <trkpt lat="32.331056" lon="77.159986"><ele>2813.6</ele></trkpt>
      <trkpt lat="32.330794" lon="77.159827"><ele>2807.9</ele></trkpt>
      <trkpt lat="32.330734" lon="77.159848"><ele>2806.4</ele></trkpt>
      <trkpt lat="32.330517" lon="77.159823"><ele>2805.4</ele></trkpt>
      <trkpt lat="32.330389" lon="77.159899"><ele>2803.6</ele></trkpt>
      <trkpt lat="32.330289" lon="77.159988"><ele>2799.4</ele></trkpt>
      <trkpt lat="32.330149" lon="77.160031"><ele>2797.1</ele></trkpt>
      <trkpt lat="32.330136" lon="77.160012"><ele>2796.4</ele></trkpt>
      <trkpt lat="32.329938" lon="77.159978"><ele>2792.5</ele></trkpt>
      <trkpt lat="32.329901" lon="77.159896"><ele>2790.2</ele></trkpt>
      <trkpt lat="32.329837" lon="77.159861"><ele>2788.1</ele></trkpt>
      <trkpt lat="32.329570" lon="77.159821"><ele>2783.2</ele></trkpt>
      <trkpt lat="32.329518" lon="77.159806"><ele>2782.0</ele></trkpt>
      <trkpt lat="32.329489" lon="77.159773"><ele>2780.0</ele></trkpt>
      <trkpt lat="32.329363" lon="77.159781"><ele>2776.2</ele></trkpt>
      <trkpt lat="32.329340" lon="77.159736"><ele>2774.2</ele></trkpt>
      <trkpt lat="32.329226" lon="77.159683"><ele>2771.1</ele></trkpt>
      <trkpt lat="32.329079" lon="77.159694"><ele>2767.8</ele></trkpt>
      <trkpt lat="32.329034" lon="77.159732"><ele>2766.4</ele></trkpt>
      <trkpt lat="32.328696" lon="77.159728"><ele>2760.4</ele></trkpt>
      <trkpt lat="32.328682" lon="77.159696"><ele>2758.3</ele></trkpt>
      <trkpt lat="32.328697" lon="77.159670"><ele>2756.6</ele></trkpt>
      <trkpt lat="32.328476" lon="77.159474"><ele>2749.7</ele></trkpt>
      <trkpt lat="32.328452" lon="77.159444"><ele>2748.4</ele></trkpt>
      <trkpt lat="32.328442" lon="77.159378"><ele>2746.2</ele></trkpt>
      <trkpt lat="32.328254" lon="77.159287"><ele>2741.6</ele></trkpt>
      <trkpt lat="32.328050" lon="77.158999"><ele>2735.2</ele></trkpt>
      <trkpt lat="32.327937" lon="77.158947"><ele>2733.4</ele></trkpt>
      <trkpt lat="32.327932" lon="77.158893"><ele>2732.2</ele></trkpt>
      <trkpt lat="32.328018" lon="77.158815"><ele>2729.2</ele></trkpt>
      <trkpt lat="32.327987" lon="77.158773"><ele>2727.1</ele></trkpt>
      <trkpt lat="32.327921" lon="77.158759"><ele>2723.4</ele></trkpt>
      <trkpt lat="32.327928" lon="77.158693"><ele>2720.9</ele></trkpt>
      <trkpt lat="32.327877" lon="77.158650"><ele>2719.6</ele></trkpt>
      <trkpt lat="32.327814" lon="77.158642"><ele>2718.0</ele></trkpt>
      <trkpt lat="32.327779" lon="77.158416"><ele>2713.6</ele></trkpt>
      <trkpt lat="32.327675" lon="77.158468"><ele>2708.8</ele></trkpt>
      <trkpt lat="32.327605" lon="77.158479"><ele>2707.9</ele></trkpt>
      <trkpt lat="32.327488" lon="77.158410"><ele>2706.7</ele></trkpt>
      <trkpt lat="32.327413" lon="77.158402"><ele>2705.1</ele></trkpt>
      <trkpt lat="32.327429" lon="77.158280"><ele>2702.3</ele></trkpt>
      <trkpt lat="32.327382" lon="77.158246"><ele>2700.5</ele></trkpt>
      <trkpt lat="32.327410" lon="77.158146"><ele>2697.7</ele></trkpt>
      <trkpt lat="32.327456" lon="77.158084"><ele>2695.9</ele></trkpt>
      <trkpt lat="32.327444" lon="77.158054"><ele>2693.7</ele></trkpt>
      <trkpt lat="32.327456" lon="77.158028"><ele>2692.6</ele></trkpt>
      <trkpt lat="32.327342" lon="77.158027"><ele>2688.0</ele></trkpt>
      <trkpt lat="32.327326" lon="77.157994"><ele>2686.5</ele></trkpt>
      <trkpt lat="32.327166" lon="77.158078"><ele>2682.4</ele></trkpt>
      <trkpt lat="32.327139" lon="77.158046"><ele>2680.3</ele></trkpt>
      <trkpt lat="32.327041" lon="77.158033"><ele>2677.4</ele></trkpt>
      <trkpt lat="32.327015" lon="77.157974"><ele>2674.7</ele></trkpt>
      <trkpt lat="32.326918" lon="77.157922"><ele>2670.9</ele></trkpt>
      <trkpt lat="32.326802" lon="77.157899"><ele>2668.0</ele></trkpt>
      <trkpt lat="32.326663" lon="77.157735"><ele>2662.5</ele></trkpt>
      <trkpt lat="32.326614" lon="77.157625"><ele>2659.1</ele></trkpt>
      <trkpt lat="32.326564" lon="77.157585"><ele>2657.2</ele></trkpt>
      <trkpt lat="32.326517" lon="77.157505"><ele>2655.2</ele></trkpt>
      <trkpt lat="32.326349" lon="77.157398"><ele>2649.9</ele></trkpt>
      <trkpt lat="32.326176" lon="77.157324"><ele>2645.8</ele></trkpt>
      <trkpt lat="32.326035" lon="77.157119"><ele>2637.5</ele></trkpt>
      <trkpt lat="32.325950" lon="77.157066"><ele>2634.5</ele></trkpt>
      <trkpt lat="32.325860" lon="77.156954"><ele>2631.4</ele></trkpt>
      <trkpt lat="32.325795" lon="77.156792"><ele>2626.9</ele></trkpt>
      <trkpt lat="32.325609" lon="77.156513"><ele>2617.4</ele></trkpt>
      <trkpt lat="32.325660" lon="77.156421"><ele>2614.5</ele></trkpt>
      <trkpt lat="32.325660" lon="77.156383"><ele>2613.2</ele></trkpt>
      <trkpt lat="32.325629" lon="77.156426"><ele>2613.1</ele></trkpt>
      <trkpt lat="32.325576" lon="77.156373"><ele>2612.7</ele></trkpt>
      <trkpt lat="32.325431" lon="77.156305"><ele>2612.1</ele></trkpt>
      <trkpt lat="32.325328" lon="77.156289"><ele>2611.4</ele></trkpt>
      <trkpt lat="32.325174" lon="77.156339"><ele>2605.5</ele></trkpt>
      <trkpt lat="32.324797" lon="77.156344"><ele>2595.3</ele></trkpt>
      <trkpt lat="32.324664" lon="77.156399"><ele>2591.6</ele></trkpt>
      <trkpt lat="32.324412" lon="77.156591"><ele>2585.0</ele></trkpt>
      <trkpt lat="32.324262" lon="77.156663"><ele>2582.1</ele></trkpt>
      <trkpt lat="32.324162" lon="77.156674"><ele>2579.0</ele></trkpt>
      <trkpt lat="32.324038" lon="77.156653"><ele>2576.2</ele></trkpt>
      <trkpt lat="32.323930" lon="77.156606"><ele>2573.7</ele></trkpt>
      <trkpt lat="32.323774" lon="77.156607"><ele>2572.2</ele></trkpt>
      <trkpt lat="32.323585" lon="77.156461"><ele>2569.9</ele></trkpt>
      <trkpt lat="32.323548" lon="77.156385"><ele>2567.8</ele></trkpt>
      <trkpt lat="32.323390" lon="77.156252"><ele>2563.7</ele></trkpt>
      <trkpt lat="32.323300" lon="77.156073"><ele>2561.8</ele></trkpt>
      <trkpt lat="32.323209" lon="77.156222"><ele>2558.4</ele></trkpt>
      <trkpt lat="32.323008" lon="77.156656"><ele>2555.0</ele></trkpt>
      <trkpt lat="32.322873" lon="77.156763"><ele>2550.0</ele></trkpt>
      <trkpt lat="32.322740" lon="77.156911"><ele>2545.6</ele></trkpt>
      <trkpt lat="32.322667" lon="77.157067"><ele>2543.6</ele></trkpt>
      <trkpt lat="32.322663" lon="77.157114"><ele>2542.0</ele></trkpt>
      <trkpt lat="32.322699" lon="77.157164"><ele>2539.9</ele></trkpt>
      <trkpt lat="32.322634" lon="77.157356"><ele>2538.5</ele></trkpt>
      <trkpt lat="32.322543" lon="77.157443"><ele>2535.7</ele></trkpt>
      <trkpt lat="32.322431" lon="77.157669"><ele>2527.4</ele></trkpt>
      <trkpt lat="32.322393" lon="77.157928"><ele>2521.9</ele></trkpt>
      <trkpt lat="32.322378" lon="77.157925"><ele>2521.0</ele></trkpt>
      <trkpt lat="32.322356" lon="77.157856"><ele>2518.4</ele></trkpt>
      <trkpt lat="32.322294" lon="77.157808"><ele>2514.3</ele></trkpt>
      <trkpt lat="32.322254" lon="77.157868"><ele>2511.8</ele></trkpt>
      <trkpt lat="32.322220" lon="77.157875"><ele>2510.5</ele></trkpt>
      <trkpt lat="32.322119" lon="77.157776"><ele>2507.6</ele></trkpt>
      <trkpt lat="32.322026" lon="77.157824"><ele>2504.4</ele></trkpt>
      <trkpt lat="32.321901" lon="77.157796"><ele>2501.6</ele></trkpt>
      <trkpt lat="32.321781" lon="77.157851"><ele>2499.2</ele></trkpt>
      <trkpt lat="32.321600" lon="77.157898"><ele>2497.4</ele></trkpt>
      <trkpt lat="32.321500" lon="77.157849"><ele>2496.0</ele></trkpt>
      <trkpt lat="32.321349" lon="77.157734"><ele>2491.6</ele></trkpt>
      <trkpt lat="32.321345" lon="77.157712"><ele>2490.0</ele></trkpt>
      <trkpt lat="32.321360" lon="77.157751"><ele>2489.0</ele></trkpt>
      <trkpt lat="32.321346" lon="77.157762"><ele>2487.8</ele></trkpt>
      <trkpt lat="32.321216" lon="77.157547"><ele>2485.0</ele></trkpt>
      <trkpt lat="32.321194" lon="77.157537"><ele>2484.4</ele></trkpt>
      <trkpt lat="32.321165" lon="77.157595"><ele>2482.4</ele></trkpt>
      <trkpt lat="32.321084" lon="77.157509"><ele>2480.9</ele></trkpt>
      <trkpt lat="32.320807" lon="77.157094"><ele>2473.8</ele></trkpt>
      <trkpt lat="32.320741" lon="77.156870"><ele>2468.9</ele></trkpt>
      <trkpt lat="32.320740" lon="77.156645"><ele>2464.8</ele></trkpt>
      <trkpt lat="32.320718" lon="77.156597"><ele>2462.6</ele></trkpt>
      <trkpt lat="32.320751" lon="77.156525"><ele>2461.2</ele></trkpt>
      <trkpt lat="32.320734" lon="77.156432"><ele>2460.4</ele></trkpt>
      <trkpt lat="32.320631" lon="77.156232"><ele>2457.5</ele></trkpt>
      <trkpt lat="32.320574" lon="77.156230"><ele>2456.9</ele></trkpt>
      <trkpt lat="32.320410" lon="77.156073"><ele>2455.6</ele></trkpt>
      <trkpt lat="32.320276" lon="77.156075"><ele>2454.7</ele></trkpt>
      <trkpt lat="32.320120" lon="77.155898"><ele>2455.2</ele></trkpt>
      <trkpt lat="32.320062" lon="77.155909"><ele>2455.4</ele></trkpt>
      <trkpt lat="32.319898" lon="77.155857"><ele>2455.0</ele></trkpt>
      <trkpt lat="32.319816" lon="77.155809"><ele>2455.0</ele></trkpt>
      <trkpt lat="32.319761" lon="77.155834"><ele>2455.0</ele></trkpt>
      <trkpt lat="32.319613" lon="77.155834"><ele>2454.6</ele></trkpt>
      <trkpt lat="32.319494" lon="77.155768"><ele>2454.1</ele></trkpt>
      <trkpt lat="32.319370" lon="77.155760"><ele>2453.9</ele></trkpt>
      <trkpt lat="32.318838" lon="77.156146"><ele>2451.3</ele></trkpt>
      <trkpt lat="32.318645" lon="77.156311"><ele>2450.4</ele></trkpt>
      <trkpt lat="32.318465" lon="77.156396"><ele>2449.2</ele></trkpt>
      <trkpt lat="32.318260" lon="77.156538"><ele>2447.3</ele></trkpt>
      <trkpt lat="32.317882" lon="77.156653"><ele>2446.2</ele></trkpt>
      <trkpt lat="32.317691" lon="77.156769"><ele>2444.8</ele></trkpt>
      <trkpt lat="32.317441" lon="77.156859"><ele>2444.0</ele></trkpt>
      <trkpt lat="32.317286" lon="77.156964"><ele>2444.1</ele></trkpt>
      <trkpt lat="32.317194" lon="77.156994"><ele>2444.3</ele></trkpt>
      <trkpt lat="32.316883" lon="77.157019"><ele>2444.9</ele></trkpt>
      <trkpt lat="32.316737" lon="77.156943"><ele>2445.1</ele></trkpt>
      <trkpt lat="32.316469" lon="77.156997"><ele>2445.5</ele></trkpt>
      <trkpt lat="32.316362" lon="77.156996"><ele>2445.6</ele></trkpt>
      <trkpt lat="32.316266" lon="77.156958"><ele>2445.9</ele></trkpt>
      <trkpt lat="32.316139" lon="77.156832"><ele>2447.4</ele></trkpt>
      <trkpt lat="32.316083" lon="77.156842"><ele>2448.2</ele></trkpt>
      <trkpt lat="32.315988" lon="77.156971"><ele>2450.0</ele></trkpt>
      <trkpt lat="32.316061" lon="77.157197"><ele>2452.1</ele></trkpt>
      <trkpt lat="32.316042" lon="77.157328"><ele>2452.7</ele></trkpt>
    </trkseg>
  </trk>
</gpx>
